,name_brewery,name_location,social_twitterUrl,social_facebookUrl,social_instagramUrl,social_untappdId,lat,lng,street,city,state,country,tag_dogFriendly,tag_familyFriendly,tag_foodService,tag_foodTrucks,tag_growlerFills,tag_over21
0,South Park Brewing Company,South Park Brewing Company,https://twitter.com/SouthParkBrewCo,https://www.facebook.com/southparkbrewco,https://www.instagram.com/southparkbrewco/,189064,32.7216668,-117.1301127,1517 30th St,San Diego,California,US,True,True,True,False,True,False
1,Rouleur Brewing Company,Rouleur Brewing Company,https://twitter.com/rouleurbrewing,https://www.facebook.com/rouleurbrewing,https://www.instagram.com/rouleurbrewing/,332529,33.1344625,-117.2698102,"5840 El Camino Real, Suite 101",Carlsbad,California,US,True,True,False,True,True,False
2,Rouleur Brewing Company,Carlsbad Brewing Company,https://twitter.com/rouleurbrewing,https://www.facebook.com/rouleurbrewing,https://www.instagram.com/rouleurbrewing/,332529,33.1281963,-117.260355,6133 Innovation Way,Carlsbad ,California,US,False,False,False,False,False,False
3,Rouleur Brewing Company,Burger Bench,https://twitter.com/rouleurbrewing,https://www.facebook.com/rouleurbrewing,https://www.instagram.com/rouleurbrewing/,332529,33.1226102,-117.0792423,237 E. Grand Ave,Escondido,California,US,False,False,False,False,False,False
4,Rouleur Brewing Company,7 Mile Kitchen,https://twitter.com/rouleurbrewing,https://www.facebook.com/rouleurbrewing,https://www.instagram.com/rouleurbrewing/,332529,33.132775,-117.3107141,5420 Grand Pacific Dr,Carlsbad ,California,US,False,False,False,False,False,False
5,Thorn Brewing Co.,Thorn Brewing Co. - Barrio Logan,https://twitter.com/ThornStBrewery,https://www.facebook.com/thornstreetbrew,https://www.instagram.com/thornstreetbrewery,47013,32.702261,-117.1479369,1735 National Avenue,San Diego,California,US,True,True,False,True,True,False
6,Thorn Brewing Co.,Thorn Street Brewery,https://twitter.com/ThornStBrewery,https://www.facebook.com/thornstreetbrew,https://www.instagram.com/thornstreetbrewery,47013,32.7393987,-117.1254989,3176 Thorn Street,San Diego,California,US,True,True,False,True,True,False
7,Thorn Brewing Co.,Valley View Casino Center,https://twitter.com/ThornStBrewery,https://www.facebook.com/thornstreetbrew,https://www.instagram.com/thornstreetbrewery,47013,32.7551821,-117.2123081,3500 Sports Arena Boulevard,San Diego,California,US,False,False,False,False,False,False
8,Thorn Brewing Co.,Pechanga Arena San Diego,https://twitter.com/ThornStBrewery,https://www.facebook.com/thornstreetbrew,https://www.instagram.com/thornstreetbrewery,47013,32.755274,-117.212196,"3500 Sports Arena Blvd, 3500 Sports Arena Blvd",San Diego,California,US,False,False,False,False,False,False
9,Thorn Brewing Co.,Thorn Brewing Co. - Mission Hills  ,https://twitter.com/ThornStBrewery,https://www.facebook.com/thornstreetbrew,https://www.instagram.com/thornstreetbrewery,47013,32.7504106,-117.1725897,4026 Hawk St Suite A,San Diego,California,US,True,True,False,False,True,False
10,AleSmith Brewing Company,AleSmith Brewing Company,https://twitter.com/AleSmithBrewing,https://www.facebook.com/AleSmithBrewing,http://instagram.com/alesmithbrewing,2471,32.8882176,-117.149821,9990 AleSmith Court,San Diego,California,US,True,True,False,True,True,False
11,West Coast BBQ,West Coast BBQ and Brew,https://twitter.com/WCBBQnBrew,https://www.facebook.com/WestCoastBarbecueBrew,https://www.instagram.com/westcoastbbqnbrew/,,32.7911122,-117.0215149,6126 Lake Murray Blvd,La Mesa,California,US,False,False,False,False,False,False
12,Bolt Brewery,Bolt Brewery La Mesa,https://twitter.com/BoltBrewery,https://www.facebook.com/boltbrewery,https://www.instagram.com/boltbrewery/,73589,32.771909,-117.020449,8179 Center Street,La Mesa,California,US,True,True,False,True,True,False
13,Bolt Brewery,Bolt Brewery Little Italy,https://twitter.com/BoltBrewery,https://www.facebook.com/boltbrewery,https://www.instagram.com/boltbrewery/,73589,32.725314,-117.1686635,1971 India Street,San Diego,California,US,False,True,True,False,True,False
14,Bolt Brewery,Bolt Brewery & Spirits,https://twitter.com/BoltBrewery,https://www.facebook.com/boltbrewery,https://www.instagram.com/boltbrewery/,73589,32.75441,-117.0451814,7081 University Avenue,La Mesa,California,US,False,False,True,False,False,True
15,Circle 9 Brewing,Circle 9 Brewing,,https://www.facebook.com/circle9brewing/,https://www.instagram.com/circle9brewing/,330387,32.8257334,-117.1609048,"7292 Opportunity Road, Suite C",San Diego,California,US,True,True,True,True,True,False
16,Quantum Brewing,Quantum Brewing,https://twitter.com/quantumbrewing,https://www.facebook.com/quantumbrewingsd,https://www.instagram.com/quantum_brewing/,138129,32.8310642,-117.1383989,5375 Kearny Villa Rd. #116,San Diego,California,US,True,True,False,False,True,False
17,Deft Brewing,Deft Brewing,https://twitter.com/deftbrewing,https://www.facebook.com/DeftBrewing/,https://www.instagram.com/deftbrewing/,365407,32.7644679,-117.1996691,5238 Banks St,San Diego,California,US,True,True,False,True,True,False
18,San Marcos Brewery & Grill,San Marcos Brewery & Grill,,https://www.facebook.com/SanMarcosBreweryGrill,,1101,33.1344351,-117.1909682,1080 West San Marcos Boulevard,San Marcos,California,US,True,True,True,False,True,False
19,Stone Brewing,Stone Brewing Tap Room - Kettner,https://twitter.com/StoneBrewing,https://www.facebook.com/StoneBrewing,http://instagram.com/StoneBrewing,1204,32.7182291,-117.1694422,1202 Kettner Blvd,San Diego,California,US,True,True,False,False,True,False
20,Stone Brewing,Stone Brewing World Bistro & Gardens - Liberty Station,https://twitter.com/StoneBrewing,https://www.facebook.com/StoneBrewing,http://instagram.com/StoneBrewing,1204,32.7406063,-117.2114812,2816 Historic Decatur Rd #116,San Diego,California,US,True,True,True,False,True,False
21,Stone Brewing,Stone Brewing Tap Room - Oceanside,https://twitter.com/StoneBrewing,https://www.facebook.com/StoneBrewing,http://instagram.com/StoneBrewing,1204,33.1968521,-117.3810415,310 N. Tremont Street,Oceanside,California,US,True,True,False,False,True,False
22,Stone Brewing,Stone Brewing World Bistro & Gardens - Escondido,https://twitter.com/StoneBrewing,https://www.facebook.com/StoneBrewing,http://instagram.com/StoneBrewing,1204,33.1158112,-117.1200116,1999 Citracado Parkway,Escondido,California,US,False,True,True,False,True,False
23,Stone Brewing,Stone Brewing Tap Room - J Street,https://twitter.com/StoneBrewing,https://www.facebook.com/StoneBrewing,http://instagram.com/StoneBrewing,1204,32.7090602,-117.1575701,795 J St,San Diego,California,US,False,True,True,False,True,False
24,Stone Brewing,California State University San Marcos,https://twitter.com/StoneBrewing,https://www.facebook.com/StoneBrewing,http://instagram.com/StoneBrewing,1204,33.1291277,-117.1596548,333 South Twin Oaks Valley Road,San Marcos,California,US,False,False,False,False,False,True
25,Stone Brewing,California State University San Marcos,https://twitter.com/StoneBrewing,https://www.facebook.com/StoneBrewing,http://instagram.com/StoneBrewing,1204,33.1291277,-117.1596548,333 South Twin Oaks Valley Road,San Marcos,California,US,False,False,False,False,False,True
26,Stone Brewing,"California Center for the Arts, Escondido ",https://twitter.com/StoneBrewing,https://www.facebook.com/StoneBrewing,http://instagram.com/StoneBrewing,1204,33.1227972,-117.0854349,340 N Escondido Blvd,Escondido,California,US,False,False,False,False,False,False
27,Stone Brewing,Stone Brewing Tap Room - San Diego International Airport,https://twitter.com/StoneBrewing,https://www.facebook.com/StoneBrewing,http://instagram.com/StoneBrewing,1204,32.7338006,-117.1933038,"3225 N Harbor Dr, Terminal 2",San Diego,California,US,False,True,True,False,False,False
28,Stone Brewing,Instagram Live,https://twitter.com/StoneBrewing,https://www.facebook.com/StoneBrewing,http://instagram.com/StoneBrewing,1204,33.1158112,-117.1200116,1999 Citracado Parkway,Escondido,California,US,False,False,False,False,False,False
29,Port Brewing Company,"Port Brewing, San Marcos",https://twitter.com/lostabbey,https://www.facebook.com/port.lostabbey,https://www.instagram.com/lostabbey/,1009,33.1416847,-117.1492963,155 Mata Way #104,San Marcos,California,US,False,True,False,True,True,False
30,Port Brewing Company,"Port Brewing, Cardiff Confessional",https://twitter.com/lostabbey,https://www.facebook.com/port.lostabbey,https://www.instagram.com/lostabbey/,1009,33.0221861,-117.282216,2007 San Elijo Ave,Cardiff,California,US,True,True,False,False,True,False
31,Latitude 33 Brewing,Latitude 33 Brewing,https://twitter.com/latitude33brew,https://www.facebook.com/latitude33brew,https://www.instagram.com/latitude33brew/,22526,33.1362843,-117.2244859,1430 Vantage Ct #104,Vista,California,US,True,True,False,True,True,True
32,Latitude 33 Brewing,Hooters Thousand Oaks,https://twitter.com/latitude33brew,https://www.facebook.com/latitude33brew,https://www.instagram.com/latitude33brew/,22526,34.1838881,-118.8758528,"3706, 401 N Moorpark Rd",Thousand Oaks,California,US,False,False,False,False,False,False
33,Latitude 33 Brewing,Public School Culver City,https://twitter.com/latitude33brew,https://www.facebook.com/latitude33brew,https://www.instagram.com/latitude33brew/,22526,34.0242997,-118.3944745,9411 Culver Blvd,Culver City,California,US,False,False,False,False,False,False
34,Latitude 33 Brewing,BevMo! Santa Monica,https://twitter.com/latitude33brew,https://www.facebook.com/latitude33brew,https://www.instagram.com/latitude33brew/,22526,34.0898212,-118.3447671,7100 Santa Monica Blvd #165,West Hollywood,California,US,False,False,False,False,False,False
35,Latitude 33 Brewing,Del Mar Fairgrounds,https://twitter.com/latitude33brew,https://www.facebook.com/latitude33brew,https://www.instagram.com/latitude33brew/,22526,32.9741712,-117.261487,2260 Jimmy Durante Blvd,Del Mar,California,US,False,False,False,False,False,False
36,Latitude 33 Brewing,Historic Downtown Vista,https://twitter.com/latitude33brew,https://www.facebook.com/latitude33brew,https://www.instagram.com/latitude33brew/,22526,32.5946776,-117.0480998,Main St.,Vista,California,US,False,False,False,False,False,False
37,Latitude 33 Brewing,Power House Park,https://twitter.com/latitude33brew,https://www.facebook.com/latitude33brew,https://www.instagram.com/latitude33brew/,22526,32.9616671,-117.2677723,1658 Coast Blvd ,Del Mar,California,US,False,False,False,False,False,False
38,Latitude 33 Brewing,STACKED Mission Valley,https://twitter.com/latitude33brew,https://www.facebook.com/latitude33brew,https://www.instagram.com/latitude33brew/,22526,32.7680871,-117.1668852,7007 Friars Rd #356,San Diego,California,US,False,False,False,False,False,False
39,Latitude 33 Brewing,JJ's Sports Zone,https://twitter.com/latitude33brew,https://www.facebook.com/latitude33brew,https://www.instagram.com/latitude33brew/,22526,34.3990158,-119.2996158,820 N Ventura Ave,Ventura,California,US,False,False,False,False,False,False
40,Latitude 33 Brewing,Holiday Wine Cellar,https://twitter.com/latitude33brew,https://www.facebook.com/latitude33brew,https://www.instagram.com/latitude33brew/,22526,33.1295714,-117.0899349,302 West Mission Ave,Escondido,California,US,False,False,False,False,False,False
41,Latitude 33 Brewing,LA Taco and Beer Festival,https://twitter.com/latitude33brew,https://www.facebook.com/latitude33brew,https://www.instagram.com/latitude33brew/,22526,34.0832446,-118.3166975,5300 Melrose Ave.,Los Angeles,California,US,False,False,False,False,False,False
42,Latitude 33 Brewing,Craft Kitchen,https://twitter.com/latitude33brew,https://www.facebook.com/latitude33brew,https://www.instagram.com/latitude33brew/,22526,32.756153,-117.0140988,4253 Palm Ave,La Mesa,California,US,False,False,False,False,False,False
43,Latitude 33 Brewing,The Privateer,https://twitter.com/latitude33brew,https://www.facebook.com/latitude33brew,https://www.instagram.com/latitude33brew/,22526,33.1766722,-117.3629226,1706 S Coast Highway,Oceanside,California,US,False,False,False,False,False,False
44,Latitude 33 Brewing,Eureka!,https://twitter.com/latitude33brew,https://www.facebook.com/latitude33brew,https://www.instagram.com/latitude33brew/,22526,33.9222636,-118.3272985,12101 S Crenshaw Blvd,Hawthorne,California,US,False,False,False,False,False,False
45,Latitude 33 Brewing,Draft Republic,https://twitter.com/latitude33brew,https://www.facebook.com/latitude33brew,https://www.instagram.com/latitude33brew/,22526,32.8700999,-117.2148748,4282 Esplanade Ct,San Diego,California,US,False,False,False,False,False,False
46,Latitude 33 Brewing,Pizza Port,https://twitter.com/latitude33brew,https://www.facebook.com/latitude33brew,https://www.instagram.com/latitude33brew/,22526,32.7479652,-117.250302,1956 Bacon St,San Diego,California,US,False,False,False,False,False,False
47,Latitude 33 Brewing,Los Angeles Zoo,https://twitter.com/latitude33brew,https://www.facebook.com/latitude33brew,https://www.instagram.com/latitude33brew/,22526,34.1490401,-118.2840485,5333 Zoo Dr,Los Angeles,California,US,False,False,False,False,False,False
48,Latitude 33 Brewing,USS Midway Museum,https://twitter.com/latitude33brew,https://www.facebook.com/latitude33brew,https://www.instagram.com/latitude33brew/,22526,32.7137622,-117.175658,910 N Harbor Dr ,San Diego,California,US,False,False,False,False,False,False
49,Latitude 33 Brewing,Championship Soccer Stadium,https://twitter.com/latitude33brew,https://www.facebook.com/latitude33brew,https://www.instagram.com/latitude33brew/,22526,33.675648,-117.7338948,8272 Great Park Blvd,Irvine,California,US,False,False,False,False,False,False
50,Latitude 33 Brewing,Del Mar Thoroughbred Club,https://twitter.com/latitude33brew,https://www.facebook.com/latitude33brew,https://www.instagram.com/latitude33brew/,22526,32.9741712,-117.261487,2260 Jimmy Durante Blvd ,Del Mar,California,US,False,False,False,False,False,False
51,Latitude 33 Brewing, Vista Optimist Club,https://twitter.com/latitude33brew,https://www.facebook.com/latitude33brew,https://www.instagram.com/latitude33brew/,22526,33.1628716,-117.2240238,600 Optimist Way,Vista,California,US,False,False,False,False,False,False
52,Latitude 33 Brewing,Town Center Community Park,https://twitter.com/latitude33brew,https://www.facebook.com/latitude33brew,https://www.instagram.com/latitude33brew/,22526,32.848857,-116.9787889,East 550 Park Center Drive,Santee,California,US,False,False,False,False,False,False
53,Latitude 33 Brewing,Town Center Community Park East,https://twitter.com/latitude33brew,https://www.facebook.com/latitude33brew,https://www.instagram.com/latitude33brew/,22526,32.848857,-116.9787889,550 Park Center Drive,Santee,California,US,False,False,False,False,False,False
54,Latitude 33 Brewing,Buffalo Wild Wings ,https://twitter.com/latitude33brew,https://www.facebook.com/latitude33brew,https://www.instagram.com/latitude33brew/,22526,33.0671618,-117.2632703,1068 N El Camino Real,encinitas ,California,US,False,False,False,False,False,False
55,Latitude 33 Brewing,Buffalo Wild Wings Mission Valley ,https://twitter.com/latitude33brew,https://www.facebook.com/latitude33brew,https://www.instagram.com/latitude33brew/,22526,32.7679317,-117.1511507,1640 Camino Del Rio N,Mission Valley ,California,US,False,False,False,False,False,False
56,Latitude 33 Brewing,Buffalo Wild Wings Mission Valley ,https://twitter.com/latitude33brew,https://www.facebook.com/latitude33brew,https://www.instagram.com/latitude33brew/,22526,32.7679317,-117.1511507,1640 Camino Del Rio N,Mission Valley ,California,US,False,False,False,False,False,False
57,Latitude 33 Brewing,Buffalo Wild Wings Oceanside ,https://twitter.com/latitude33brew,https://www.facebook.com/latitude33brew,https://www.instagram.com/latitude33brew/,22526,33.1818171,-117.3292562,2685 Vista Way,Oceanside,California,US,False,False,False,False,False,False
58,Latitude 33 Brewing,Buffalo Wild Wings Oceanside ,https://twitter.com/latitude33brew,https://www.facebook.com/latitude33brew,https://www.instagram.com/latitude33brew/,22526,33.1818171,-117.3292562,2685 Vista Way,Oceanside,California,US,False,False,False,False,False,False
59,Latitude 33 Brewing,Buffalo Wild Wings Oceanside ,https://twitter.com/latitude33brew,https://www.facebook.com/latitude33brew,https://www.instagram.com/latitude33brew/,22526,33.1818171,-117.3292562,2685 Vista Way,Oceanside,California,US,False,False,False,False,False,False
60,Latitude 33 Brewing,Buffalo Wild Wings San Marcos ,https://twitter.com/latitude33brew,https://www.facebook.com/latitude33brew,https://www.instagram.com/latitude33brew/,22526,33.1351394,-117.1889236,1010 San Marcos Blvd.,San Marcos,California,US,False,False,False,False,False,False
61,Latitude 33 Brewing,Buffalo Wild Wings Chula Vista Center ,https://twitter.com/latitude33brew,https://www.facebook.com/latitude33brew,https://www.instagram.com/latitude33brew/,22526,32.6303967,-117.0849871,555 Broadway,Chula Vista ,California,US,False,False,False,False,False,False
62,Latitude 33 Brewing,Buffalo Wild Wings Eastlake ,https://twitter.com/latitude33brew,https://www.facebook.com/latitude33brew,https://www.instagram.com/latitude33brew/,22526,32.625087,-116.9667112,2015 Birch Rd.,Chula Vista ,California,US,False,False,False,False,False,False
63,Mike Hess Brewing Co.,Mike Hess Brewing Ocean Beach,https://twitter.com/mikehessbrewing,https://www.facebook.com/MikeHessBrewingCoNorthPark,http://instagram.com/mikehessbrewing,2174,32.750713,-117.2448995,4893 Voltaire St,San Diego,California,US,True,True,False,False,True,False
64,Mike Hess Brewing Co.,Mike Hess Brewing North Park,https://twitter.com/mikehessbrewing,https://www.facebook.com/MikeHessBrewingCoNorthPark,http://instagram.com/mikehessbrewing,2174,32.7476888,-117.1285434,3812 Grim Avenue,San Diego,California,US,True,True,False,False,True,False
65,Mike Hess Brewing Co.,Mike Hess Brewing Miramar,https://twitter.com/mikehessbrewing,https://www.facebook.com/MikeHessBrewingCoNorthPark,http://instagram.com/mikehessbrewing,2174,32.8892474,-117.149775,"7955 Silverton Avenue, Suite 1201",San Diego,California,US,True,True,False,False,True,False
66,Mike Hess Brewing Co.,Mike Hess Brewing Imperial Beach,https://twitter.com/mikehessbrewing,https://www.facebook.com/MikeHessBrewingCoNorthPark,http://instagram.com/mikehessbrewing,2174,32.5807547,-117.1320645,805 Ocean Lane,Imperial Beach,California,US,True,True,True,False,True,False
67,Black Plague Brewing,Black Plague Brewing Taproom,https://twitter.com/blackplaguebeer,https://www.facebook.com/blackplaguebrewing,https://www.instagram.com/BlackPlagueBrewing/,299538,33.2156371,-117.2667695,2550 Jason Court,Oceanside,California,US,True,True,False,True,True,False
68,Black Plague Brewing,Twin Oaks Valley Golf Course & Banquet Hall,https://twitter.com/blackplaguebeer,https://www.facebook.com/blackplaguebrewing,https://www.instagram.com/BlackPlagueBrewing/,299538,33.1647898,-117.1588506,1425 N Twin Oaks Valley Rd,San Marcos,California,US,False,False,False,False,False,False
69,Indian Joe Brewing Company,Indian Joe Brewing,https://twitter.com/IndianJoeBeer,www.facebook.com/IndianJoeBrewing,http://instagram.com/indianjoebrewing,40476,33.1522214,-117.2281046,2123 Industrial Ct.,Vista,California,US,True,True,False,True,True,False
70,Mother Earth Brewing Company,Mother Earth Brewing Company - Production Facility and Tasting Room,https://twitter.com/MotherEarthBrCo,https://www.facebook.com/MotherEarthBrewCo,https://instagram.com/MotherEarthBrewCo,5092,43.597409,-116.560701,1428 Madison Ave. Bldg. 21K,Nampa,California,US,True,True,False,False,True,False
71,Mother Earth Brewing Company,Mother Earth Brewing Company - Tap House,https://twitter.com/MotherEarthBrCo,https://www.facebook.com/MotherEarthBrewCo,https://instagram.com/MotherEarthBrewCo,5092,33.2024551,-117.2423369,206 Main Street ,Vista,California,US,True,True,False,False,True,False
72,Mother Earth Brewing Company,Mother's Provisions - Wine and Beer Bar,https://twitter.com/MotherEarthBrCo,https://www.facebook.com/MotherEarthBrewCo,https://instagram.com/MotherEarthBrewCo,5092,33.2024259,-117.2424147,204 Main St.,Vista,California,US,False,True,True,False,False,False
73,Mother Earth Brewing Company,Mother Earth Production Facility,https://twitter.com/MotherEarthBrCo,https://www.facebook.com/MotherEarthBrewCo,https://instagram.com/MotherEarthBrewCo,5092,33.1677133,-117.2203174,2055 Thibodo Rd,Vista,California,US,False,False,False,False,False,False
74,Mason Ale Works,Mason Ale Works Production Facility Brewery,https://twitter.com/masonaleworks,https://www.facebook.com/MasonAleWorks,https://www.instagram.com/masonaleworks/,246213,33.1358939,-117.1585644,255 Redel Rd,San Marcos,California,US,True,True,True,False,False,False
75,Mason Ale Works,Mason Ale Works Tasting Room + Kitchen,https://twitter.com/masonaleworks,https://www.facebook.com/MasonAleWorks,https://www.instagram.com/masonaleworks/,246213,32.9288731,-117.1975497,5500 Carmel Mountain Rd #1134,San Diego,California,US,True,True,True,False,False,False
76,Mason Ale Works,Sidecar Bar,https://twitter.com/masonaleworks,https://www.facebook.com/MasonAleWorks,https://www.instagram.com/masonaleworks/,246213,32.7719297,-117.202362, 1310 Morena Blvd,San Diego,California,US,False,False,False,False,False,False
77,Mason Ale Works,Craft Kitchen La Mesa,https://twitter.com/masonaleworks,https://www.facebook.com/MasonAleWorks,https://www.instagram.com/masonaleworks/,246213,32.756153,-117.0140988,4253 Palm Ave,La Mesa,California,US,False,False,False,False,False,False
78,Mason Ale Works,Coin Op North Park,https://twitter.com/masonaleworks,https://www.facebook.com/MasonAleWorks,https://www.instagram.com/masonaleworks/,246213,32.74903270000001,-117.1303769,3926 30th St,San Diego,California,US,False,False,False,False,False,False
79,Mason Ale Works,Bayside Landing,https://twitter.com/masonaleworks,https://www.facebook.com/MasonAleWorks,https://www.instagram.com/masonaleworks/,246213,32.788437,-117.237592,3780 Ingraham St,San Diego,California,US,False,False,False,False,False,False
80,Mason Ale Works,The Dog - PB,https://twitter.com/masonaleworks,https://www.facebook.com/MasonAleWorks,https://www.instagram.com/masonaleworks/,246213,32.7979549,-117.2479462,4479 Everts St,San Diego,California,US,False,False,False,False,False,False
81,Mason Ale Works,The Regal Seagull,https://twitter.com/masonaleworks,https://www.facebook.com/MasonAleWorks,https://www.instagram.com/masonaleworks/,246213,33.0660361,-117.303041,996 N Coast Highway 101,San Diego,California,US,False,False,False,False,False,False
82,Mason Ale Works,Regents Pizza,https://twitter.com/masonaleworks,https://www.facebook.com/MasonAleWorks,https://www.instagram.com/masonaleworks/,246213,32.8732268,-117.2174992,4150 Regents Park Row #100,San Diego,California,US,False,False,False,False,False,False
83,Mason Ale Works,Burger Bench,https://twitter.com/masonaleworks,https://www.facebook.com/MasonAleWorks,https://www.instagram.com/masonaleworks/,246213,33.1226102,-117.0792423,237 E Grand Ave,Escondido,California,US,False,False,False,False,False,False
84,Mason Ale Works,Burger Bench,https://twitter.com/masonaleworks,https://www.facebook.com/MasonAleWorks,https://www.instagram.com/masonaleworks/,246213,33.1226102,-117.0792423,237 E Grand Ave,Escondido,California,US,False,False,False,False,False,False
85,Breakwater Brewing Company,Breakwater Brewing Company,https://twitter.com/Breakwaterbrew,https://www.facebook.com/pages/Breakwater-Brewing-Company/92183371892,http://instagram.com/Breakwaterbrew,2269,33.1950386,-117.3793846,101 N. Coast Highway,Oceanside,California,US,False,True,True,False,True,False
86,Pure Project,Pure Project Balboa Park,https://twitter.com/purebrewing,https://www.facebook.com/purebrewing,https://www.instagram.com/purebrewing/,248508,32.7352389,-117.1600545,2865 Fifth Avenue,San Diego,California,US,True,True,False,False,True,False
87,Pure Project,Ocean Beach Pier,https://twitter.com/purebrewing,https://www.facebook.com/purebrewing,https://www.instagram.com/purebrewing/,248508,32.7462026,-117.2542204,1900 Ocean Front St,San Diego,California,US,False,False,False,False,False,False
88,Pure Project,Cowles Mountain Trailhead,https://twitter.com/purebrewing,https://www.facebook.com/purebrewing,https://www.instagram.com/purebrewing/,248508,32.8299511,-117.0177197,8282 Mesa Rd,Santee,California,US,False,False,False,False,False,False
89,Pure Project,Pure Project Miramar Brewery & Tap Room,https://twitter.com/purebrewing,https://www.facebook.com/purebrewing,https://www.instagram.com/purebrewing/,248508,32.8866311,-117.1571274,9030 Kenamar Dr #308,San Diego,California,US,False,False,False,False,False,False
90,Pure Project,Home Brewing Co,https://twitter.com/purebrewing,https://www.facebook.com/purebrewing,https://www.instagram.com/purebrewing/,248508,32.7551076,-117.1312568,2903 El Cajon Blvd,San Diego,California,US,False,False,False,False,False,False
91,Pure Project,Mission Trails Regional Park Tierrasanta Entrance,https://twitter.com/purebrewing,https://www.facebook.com/purebrewing,https://www.instagram.com/purebrewing/,248508,32.825272,-117.0779703,11499 Clairemont Mesa Blvd,San Diego,California,US,False,False,False,False,False,False
92,Pure Project,Mesa Rim Climbing Center (Mission Valley),https://twitter.com/purebrewing,https://www.facebook.com/purebrewing,https://www.instagram.com/purebrewing/,248508,32.7596759,-117.161309,405 Camino del Rio S,San Diego,California,US,False,False,False,False,False,False
93,Pure Project,Grotto Climbing,https://twitter.com/purebrewing,https://www.facebook.com/purebrewing,https://www.instagram.com/purebrewing/,248508,32.7802694,-117.0980249,4460 Alvarado Canyon Rd,San Diego,California,US,False,False,False,False,False,False
94,Pure Project,Santee Boulders,https://twitter.com/purebrewing,https://www.facebook.com/purebrewing,https://www.instagram.com/purebrewing/,248508,32.8467,-117.021358,8750 Mast Blvd,Santee,California,US,False,False,False,False,False,False
95,Pure Project,Balboa Park,https://twitter.com/purebrewing,https://www.facebook.com/purebrewing,https://www.instagram.com/purebrewing/,248508,32.7356406,-117.1585594,2906 Balboa Drive,San Diego,California,US,False,False,False,False,False,False
96,Arrogant Consortia,Arrogant Consortia,https://twitter.com/ArrogantBastard,https://www.facebook.com/ArrogantConsortia,https://www.instagram.com/ArrogantBastard/,234399,33.1158112,-117.1200116,1999 Citracado Pkwy,Escondido,California,US,False,False,False,False,True,False
97,Fourpenny House,Fourpenny House,https://twitter.com/FourpennyHouse,https://www.facebook.com/fourpennyhouse/,https://www.instagram.com/fourpennyhouse/,319636,32.7651681,-117.018468,8323 La Mesa Blvd.,La Mesa,California,US,False,True,True,False,True,False
98,Pacific Islander Beer Co,Pacific Islander Brewing,https://twitter.com/pibbeer/,https://www.facebook.com/pibbeer/,https://www.instagram.com/pibbeer/,112185,32.8328794,-116.9889504,8665 Argent Street,Santee,California,US,True,True,False,True,True,False
99,Pacific Islander Beer Co,Pacific Islander Beer Co,https://twitter.com/pibbeer/,https://www.facebook.com/pibbeer/,https://www.instagram.com/pibbeer/,112185,32.8328875,-116.9889673,8665 Argent st,Santee,California,US,True,True,False,True,True,False
100,Pacific Islander Beer Co,Pacific Islander Beer Co,https://twitter.com/pibbeer/,https://www.facebook.com/pibbeer/,https://www.instagram.com/pibbeer/,112185,32.8328875,-116.9889673,8665 Argent St,Santee,California,US,True,True,False,True,True,False
101,Pacific Islander Beer Co,Pacific Islander Beer co,https://twitter.com/pibbeer/,https://www.facebook.com/pibbeer/,https://www.instagram.com/pibbeer/,112185,32.8328794,-116.9889504,8665 Argent Street,Santee,California,US,True,True,False,True,True,False
102,Plan 9 Alehouse,Plan 9 Alehouse,https://twitter.com/plan9alehouse,https://www.facebook.com/plan9alehouse,http://instagram.com/plan9alehouse/,12035,33.1219384,-117.0801782,155 East Grand Avenue,Escondido,California,US,True,True,True,False,True,False
103,BNS Brewing & Distilling Co.,BNS Brewing & Distilling Co. tasting room,,https://www.facebook.com/BNSBrewingDistillingCo,http://instagram.com/bnsbrewinganddistilling,66854,32.846657,-116.958345,10960 Wheatlands Avenue #101,Santee,California,US,True,True,False,True,True,False
104,Coronado Brewing Company,Coronado Brewing Company Imperial Beach,https://twitter.com/CoronadoBrewing,https://www.facebook.com/coronadobrewingcompany,https://www.instagram.com/coronadobrewing,404,32.5805325,-117.1313945,875 Seacoast Dr,Imperial Beach,California,US,True,True,True,False,True,False
105,Coronado Brewing Company,Coronado Brewing Company Tasting Room & Kitchen,https://twitter.com/CoronadoBrewing,https://www.facebook.com/coronadobrewingcompany,https://www.instagram.com/coronadobrewing,404,32.7718721,-117.2045788,1205 Knoxville St,San Diego,California,US,True,True,True,False,True,False
106,Coronado Brewing Company,Coronado Brewing Company Pub,https://twitter.com/CoronadoBrewing,https://www.facebook.com/coronadobrewingcompany,https://www.instagram.com/coronadobrewing,404,32.6977694,-117.1732329,170 Orange Avenue,Coronado,California,US,False,True,True,False,True,False
107,Protector Brewery,Protector Brewery,https://twitter.com/ProtectorBrew,https://www.facebook.com/ProtectorBrewery,https://www.instagram.com/protectorbrewery/,343392,32.8965196,-117.1375005,"8680 Miralani Drive, Suite # 128",San Diego,California,US,True,True,False,False,True,False
108,Backstreet Brewery,Backstreet Brewery,https://twitter.com/BackStreetBrew,https://www.facebook.com/BackstreetBreweryInc,,2223,33.2000345,-117.2447324,15 Main St.,Vista,California,US,False,True,True,False,True,False
109,Rincon Reservation Road Brewery,Rincon Reservation Road Brewery,,https://www.facebook.com/3RBrewery/,https://www.instagram.com/3rbrewery/,446679,33.265793,-116.9549353,777 Harrah’s Rincon Way,Valley Center,California,US,False,False,False,False,False,False
110,Bottlecraft,Bottlecraft — Solana Beach,https://twitter.com/bottlecraft,https://www.facebook.com/Bottlecraft,https://www.instagram.com/bottlecraft/,,32.98617292431083,-117.27107811600798,437 S Hwy 101,Solana Beach,California,US,True,False,True,False,False,True
111,Bottlecraft,Bottlecraft — North Park,https://twitter.com/bottlecraft,https://www.facebook.com/Bottlecraft,https://www.instagram.com/bottlecraft/,,32.7482297,-117.1298157,3007 University Ave,San Diego,California,US,True,True,True,False,False,False
112,Bottlecraft,Bottlecraft — Liberty Station,https://twitter.com/bottlecraft,https://www.facebook.com/Bottlecraft,https://www.instagram.com/bottlecraft/,,32.7401595,-117.2111954,2820 Historic Decatur,San Diego,California,US,False,True,True,False,False,False
113,Bottlecraft,Bottlecraft — Little Italy,https://twitter.com/bottlecraft,https://www.facebook.com/Bottlecraft,https://www.instagram.com/bottlecraft/,,32.7280488,-117.1704128,2252 India Street,San Diego,California,US,True,False,False,False,False,True
114,Bottlecraft,Bottlecraft — Sorrento Valley,https://twitter.com/bottlecraft,https://www.facebook.com/Bottlecraft,https://www.instagram.com/bottlecraft/,,32.9050222,-117.2288916,11055 Roselle Street,San Diego,California,US,True,False,False,False,False,True
115,Prohibition Brewing Co.,Prohibition Brewing Co.,https://twitter.com/prohibitionbc,https://www.facebook.com/ProhibitionBrewing,http://instagram.com/ProhibitionBrewing,16965,33.2304468,-117.2265948,2004 East Vista Way,Vista,California,US,True,True,True,False,True,False
116,Prohibition Brewing Co.,Prohibition Station,https://twitter.com/prohibitionbc,https://www.facebook.com/ProhibitionBrewing,http://instagram.com/ProhibitionBrewing,16965,33.3827003,-117.2515165,136 N. Main Ave.,Fallbrook,California,US,True,True,False,False,True,False
117,White Labs Brewing Co.,White Labs Brewing Co.,https://twitter.com/whitelabs,https://www.facebook.com/whitelabs,https://www.instagram.com/whitelabstastingroom/,26814,32.8957219,-117.1213738,9495 Candida Street,San Diego,California,US,True,True,False,True,True,False
118,White Labs Brewing Co.,Port Pavilion on Broadway Pier,https://twitter.com/whitelabs,https://www.facebook.com/whitelabs,https://www.instagram.com/whitelabstastingroom/,26814,32.7156489,-117.1755992,1000 N. Harbor Drive,San Diego,California,US,False,False,False,False,False,False
119,White Labs Brewing Co.,The Lodge at Torrey Pines,https://twitter.com/whitelabs,https://www.facebook.com/whitelabs,https://www.instagram.com/whitelabstastingroom/,26814,32.9041197,-117.2446315,11480 N. Torrey Pines Road ,La Jolla,California,US,False,False,False,False,False,False
120,White Labs Brewing Co.,White Labs Inc.,https://twitter.com/whitelabs,https://www.facebook.com/whitelabs,https://www.instagram.com/whitelabstastingroom/,26814,32.8957219,-117.1213738,9495 Candida St,San Diego,California,US,False,False,False,False,False,False
121,Abnormal Beer Co.,Abnormal Beer Co. / The Cork and Craft,https://twitter.com/AbnormalBeerCo,https://www.facebook.com/AbnormalBeerCo,http://instagram.com/AbnormalBeerCo,194089,33.0236601,-117.0858749,"16990 Via Tazon, Suite 123",San Diego,California,US,False,True,True,False,False,False
122,Abnormal Beer Co.,Bottlecraft Sorrento Valley,https://twitter.com/AbnormalBeerCo,https://www.facebook.com/AbnormalBeerCo,http://instagram.com/AbnormalBeerCo,194089,32.9050222,-117.2288916,11055 Roselle St #1204,"San Diego, CA",California,US,False,False,False,False,False,False
123,Culver Beer Co.,Culver Beer / Locally Toasted (Deli),https://twitter.com/CulverBeer,https://www.facebook.com/Culverbeerco,https://www.instagram.com/culverbeer/,252717,33.1326935,-117.2585179,2719 West Loker Avenue,Carlsbad,California,US,True,True,True,False,True,False
124,Guadalupe Brewery,Guadalupe Brewery (Working Brewery Only),https://twitter.com/guadalupecbad,https://www.facebook.com/guadalupebrewery,https://www.instagram.com/guadalupebrewery/,198291,33.1386784,-117.2736279,"5674 El Camino Real, Ste D",Carlsbad,California,US,False,False,False,False,False,False
125,Guadalupe Brewery,Guadalupe Brewery Tap House,https://twitter.com/guadalupecbad,https://www.facebook.com/guadalupebrewery,https://www.instagram.com/guadalupebrewery/,198291,33.1956389,-117.2380555,631 S. Santa Fe Ave,Vista,California,US,True,True,False,False,True,False
126,Bitter Brothers Brewing Co.,Bitter Brothers Tasting Room,https://twitter.com/bitter_brothers,https://www.facebook.com/BitterBrothersBrewingCo/,https://www.instagram.com/bitterbrothersbrewingco/,160331,32.815648,-117.220138,4170 Morena Blvd,San Diego,California,US,True,True,False,False,True,False
127,Culture Brewing Co.,Culture Brewing Co - Ocean Beach,https://twitter.com/CultureBrewCo,https://www.facebook.com/CultureBrewingCo,http://instagram.com/CultureBrewingCo,56269,32.744998,-117.248574,4845 Newport Ave,San Diego,California,US,True,True,False,False,True,False
128,Culture Brewing Co.,Culture Brewing Co - Solana Beach,https://twitter.com/CultureBrewCo,https://www.facebook.com/CultureBrewingCo,http://instagram.com/CultureBrewingCo,56269,32.9915796,-117.2707116,111 South Cedros Avenue Suite 200,Solana Beach,California,US,True,True,False,True,True,False
129,Culture Brewing Co.,Culture Brewing Co - Encinitas,https://twitter.com/CultureBrewCo,https://www.facebook.com/CultureBrewingCo,http://instagram.com/CultureBrewingCo,56269,33.0442896,-117.2934094,629 South Coast Highway 101,Encinitas,California,US,False,False,False,False,False,False
130,Culture Brewing Co.,Culture Brewing Co - Solana Beach,https://twitter.com/CultureBrewCo,https://www.facebook.com/CultureBrewingCo,http://instagram.com/CultureBrewingCo,56269,32.9915796,-117.2707116,111 S Cedros Ave ,Solana Beach,California,US,False,False,False,False,False,False
131,Culture Brewing Co.,Culture Brewing Co - Encinitas,https://twitter.com/CultureBrewCo,https://www.facebook.com/CultureBrewingCo,http://instagram.com/CultureBrewingCo,56269,33.0442922,-117.2933519,629 South Coast Highway 101,Encinitas,California,US,True,True,False,False,True,False
132,Culture Brewing Co.,Culture Brewing Co - Ocean Beach,https://twitter.com/CultureBrewCo,https://www.facebook.com/CultureBrewingCo,http://instagram.com/CultureBrewingCo,56269,32.744998,-117.248574,4845 Newport Ave,San Diego,California,US,True,True,False,False,True,False
133,Kilowatt Brewing,Kilowatt Brewing Kearny Mesa,https://twitter.com/kilowattbeer,https://www.facebook.com/kilowattbeer,https://www.instagram.com/kilowattbeer/,186848,32.8331085,-117.1563692,7576 Clairemont Mesa Blvd.,San Diego,California,US,True,True,False,False,True,False
134,Kilowatt Brewing,Kilowatt Brewing Ocean Beach,https://twitter.com/kilowattbeer,https://www.facebook.com/kilowattbeer,https://www.instagram.com/kilowattbeer/,186848,32.7453646,-117.2494467,1875 Cable Street,San Diego,California,US,True,True,False,False,True,False
135,Kilowatt Brewing,Kilowatt Brewing Oceanside Taproom & Provisions,https://twitter.com/kilowattbeer,https://www.facebook.com/kilowattbeer,https://www.instagram.com/kilowattbeer/,186848,33.1957975,-117.3802268,406 Mission Avenue,Oceanside,California,US,False,True,True,True,True,False
136,Bay City Brewing Co.,Bay City Brewing Co.,https://twitter.com/baycitybrewing,https://www.facebook.com/baycitybrewingco/,https://www.instagram.com/explore/locations/773701425/,220274,32.7579949,-117.2118382,3760 Hancock St.,San Diego,California,US,True,True,False,True,True,False
137,Bay City Brewing Co.,Bay City Brewing Co. East Village Tap Room,https://twitter.com/baycitybrewing,https://www.facebook.com/baycitybrewingco/,https://www.instagram.com/explore/locations/773701425/,220274,32.711992,-117.157103,627 8th Avenue ,San Diego,California,US,False,True,True,False,True,False
138,Thr3e Punk Ales Brewing,Thr3e Punk Ales Brewing Co.,https://twitter.com/Thr3ePunkAles,https://www.facebook.com/3PunkAles,https://www.instagram.com/thr3epunkales_brewing/,187071,32.6428453,-117.0801721,259 3rd Ave,Chula Vista,California,US,True,True,False,True,True,False
139,Division 23 Brewing,Division 23 taproom,https://twitter.com/Division23brew,https://www.facebook.com/division23brewing,https://www.instagram.com/division23brewing/,192865,32.890339,-117.162898,7408 Trade Street,San Diego,California,US,True,True,False,True,True,False
140,Viewpoint Brewing Co.,Viewpoint Brewing Co.,,https://www.facebook.com/ViewpointBrewing/,https://www.instagram.com/viewpointbrewingco/,351011,32.9700036,-117.261944,2201 San Dieguito Drive,Del Mar,California,US,True,True,True,False,True,False
141,Viewpoint Brewing Co.,Surf Cup Sports Park,,https://www.facebook.com/ViewpointBrewing/,https://www.instagram.com/viewpointbrewingco/,351011,32.9802497,-117.2257747,14555 El Camino Real,Del Mar,California,US,False,False,False,False,False,False
142,Helix Brewing Co.,HELIX BREWING CO + SOURWORX,https://twitter.com/HelixBrewingCo/,https://www.facebook.com/helixbrewingco/,https://www.instagram.com/helixbrewingco/,68070,32.7720011,-117.0233528,8101 Commercial Street,La Mesa,California,US,True,True,False,True,True,False
143,Two Roots Brewing Company,Two Roots Brewing Company,https://twitter.com/tworootsbrewing,https://www.facebook.com/TwoRootsBrewing/,https://www.instagram.com/tworootsbrewingcompany,42303,32.7458569,-117.2490133,"5640 Kearny Mesa Rd, Suite C & N",San Diego,California,US,True,True,False,False,True,False
144,The Hop Concept,"The Hop Concept, Cardiff Confessional",https://twitter.com/TheHopConcept,https://www.facebook.com/TheHopConcept/,https://www.instagram.com/thehopconcept/,172284,33.0221861,-117.282216,2007 San Elijo Ave,Cardiff,California,US,True,True,False,False,True,False
145,The Hop Concept,"The Hop Concept, San Marcos",https://twitter.com/TheHopConcept,https://www.facebook.com/TheHopConcept/,https://www.instagram.com/thehopconcept/,172284,33.1416847,-117.1492963,"155 Mata Way, Suite 104",San Marcos,California,US,False,True,False,True,True,False
146,Mikkeller Brewing San Diego,Mikkeller Brewing San Diego,https://twitter.com/mikkellersd,https://www.facebook.com/mikkellersandiego/,https://www.instagram.com/mikkellersd/,264526,32.8921249,-117.1440842,9368 Cabot Drive,San Diego,California,US,True,True,False,True,True,False
147,Mikkeller Brewing San Diego,Mikkeller Little Italy,https://twitter.com/mikkellersd,https://www.facebook.com/mikkellersandiego/,https://www.instagram.com/mikkellersd/,264526,32.7257135,-117.1690219,2021 India St,San Diego,California,US,True,True,False,False,True,False
148,Jamul Brewing Co.,Production only. No taproom.,https://twitter.com/JamulBrewCo,https://www.facebook.com/JamulBrewingCo,,78534,32.709895,-116.877454, ,Jamul,California,US,False,False,False,False,False,False
149,Flagship Cruises & Events,Flagship Cruises Ticket Booth & Boat Departures,https://twitter.com/FlagshipSD,https://www.facebook.com/FlagshipSD,https://www.instagram.com/flagshipsd/,,32.7165237,-117.1734925,990 North Harbor Drive,San Diego,California,US,False,False,False,False,False,False
150,Home Brewing Co,Home Brewing Co,https://twitter.com/homebrewerSD,https://www.facebook.com/homebrewingco,http://instagram.com/homebrewingco,185483,32.755089,-117.130994,"2911 El Cajon Blvd, Ste 2",SAN DIEGO,California,US,True,True,False,False,True,False
151,Wild Barrel Brewing,Wild Barrel Brewing,https://twitter.com/WildBarrelBrew,https://www.facebook.com/wildbarrelbrewing,https://www.instagram.com/wildbarrelbrewing/,362472,33.140147,-117.145759,692 Rancheros Drive,San Marcos,California,US,True,True,False,True,True,False
152,Wild Barrel Brewing,Wild Barrel Brewing Temecula,https://twitter.com/WildBarrelBrew,https://www.facebook.com/wildbarrelbrewing,https://www.instagram.com/wildbarrelbrewing/,362472,33.5228564,-117.1510405,"41493 Margarita Rd, Suite 106 A & B",Temecula,California,US,False,False,False,False,False,False
153,Bagby Beer Company,Bagby Beer Company,https://twitter.com/bagbybeer,https://www.facebook.com/pages/Bagby-Beer/339998926074820,http://instagram.com/bagbybeer,154817,33.189225,-117.374257,601 South Coast Highway,Oceanside,California,US,True,True,True,False,True,False
154,Rough Draft Brewing Company,Rough Draft tasting room,https://twitter.com/RoughDraftBrew,https://www.facebook.com/RoughDraftBrew,,25885,32.8834869,-117.1717856,8830 Rehco Road,San Diego,California,US,True,True,True,False,True,False
155,Rough Draft Brewing Company,Rough Draft Pub - UCSD,https://twitter.com/RoughDraftBrew,https://www.facebook.com/RoughDraftBrew,,25885,32.8756502,-117.2224578,3869 Miramar St.,La Jolla,California,US,True,True,False,True,True,False
156,Dos Desperados Brewery,Dos Desperados Tasting Room,https://twitter.com/dosdesperados,https://www.facebook.com/dosdesperadosbrew/,https://www.instagram.com/dosdesperadosbrew/,117526,33.1373145,-117.1935382,1241 Linda Vista Drive,San Marcos,California,US,True,True,False,True,True,False
157,Dos Desperados Brewery,Dos Desperados Brewery & Tasting Room,https://twitter.com/dosdesperados,https://www.facebook.com/dosdesperadosbrew/,https://www.instagram.com/dosdesperadosbrew/,117526,33.1369175,-117.1934247,1241 Linda Vista Drive,San Marcos,California,US,False,False,False,False,False,False
158,Amplified Ale Works,Amplified Ale Works,https://twitter.com/amplifiedales,https://www.facebook.com/ckpacificbeach,http://instagram.com/AMPLIFIEDALES,30765,32.8866311,-117.1571274,"9030 Kenamar Drive, Suite 309",San Diego,California,US,True,True,False,False,True,False
159,Amplified Ale Works,Amplified Ale Works,https://twitter.com/amplifiedales,https://www.facebook.com/ckpacificbeach,http://instagram.com/AMPLIFIEDALES,30765,32.791766,-117.2543247,4150 Mission Boulevard #208,San Diego,California,US,True,True,True,False,True,False
160,Amplified Ale Works,Thunderhawk Alements,https://twitter.com/amplifiedales,https://www.facebook.com/ckpacificbeach,http://instagram.com/AMPLIFIEDALES,30765,32.8957913,-117.1374768,8675  Miralani Dr Ste 100,San Diego,California,US,False,False,False,False,False,False
161,Amplified Ale Works,Amplified Kitchen + Beer Garden East Village,https://twitter.com/amplifiedales,https://www.facebook.com/ckpacificbeach,http://instagram.com/AMPLIFIEDALES,30765,32.7102832,-117.1517051,1429 Island Ave,San Diego,California,US,False,False,False,False,False,False
162,Amplified Ale Works,Amplified Ale Works Kitchen + Beer Garden,https://twitter.com/amplifiedales,https://www.facebook.com/ckpacificbeach,http://instagram.com/AMPLIFIEDALES,30765,32.7102832,-117.1517051,1429 Island Ave,San Diego,California,US,True,True,True,False,True,False
163,Eppig Brewing,The Home Brewer,https://twitter.com/EppigBrewing,https://www.facebook.com/eppigbrewing/,https://www.instagram.com/eppigbrewing/,304405,32.755089,-117.130994,2911 El Cajon Blvd,San Diego,California,US,False,False,False,False,False,False
164,Eppig Brewing,Eppig Brewing- Waterfront Biergarten,https://twitter.com/EppigBrewing,https://www.facebook.com/eppigbrewing/,https://www.instagram.com/eppigbrewing/,304405,32.7229105,-117.2286729,2817 Dickens St,San Diego,California,US,True,True,True,False,True,False
165,Eppig Brewing,Eppig Brewery & Bierhalle,https://twitter.com/EppigBrewing,https://www.facebook.com/eppigbrewing/,https://www.instagram.com/eppigbrewing/,304405,33.1357718,-117.2336363,"1347 Keystone Way, Suite C",Vista,California,US,True,True,True,True,True,False
166,Oggi's Sports | Brewhouse | Pizza ,Oggi's Sports | Brewhouse | Pizza Carmel Mountain Ranch,https://twitter.com/Oggis,https://www.facebook.com/oggissportsbrewhousepizza/,https://www.instagram.com/oggispizza/,1699,32.9655214,-117.089843,10155 Rancho Carmel Drive,San Diego,California,US,False,True,True,False,True,False
167,New English Brewing Company,New English Brewing,https://twitter.com/NewEnglishBrew,https://www.facebook.com/pages/New-English-Brewing/175258044381,http://instagram.com/newenglishbrewing,1600,32.912802,-117.230807,11545 Sorrento Valley Rd. #305,San Diego,California,US,True,True,True,True,True,False
168,Booze Brothers Brewing Co.,Booze Brothers Brewing Co.,https://twitter.com/boozebrosbrew,https://www.facebook.com/boozebrosbrew,http://instagram.com/boozebros,19415,33.148172,-117.218047,"2545 Progress St., Suite D",Vista,California,US,True,True,True,True,True,False
169,Booze Brothers Brewing Co.,Owl Farm / Booze Brothers Brewing Co.,https://twitter.com/boozebrosbrew,https://www.facebook.com/boozebrosbrew,http://instagram.com/boozebros,19415,33.148182,-117.2181424,2545 Progress St.,Vista,California,US,False,False,False,False,False,False
170,Ocean Beach Brewery,Ocean Beach Brewery,https://twitter.com/obbrewery,https://www.facebook.com/obbrewingco/,https://www.instagram.com/obbrewery/,281061,32.7473097,-117.2521804,5041 Newport Ave,San Diego,California,US,True,True,True,False,False,False
171,Novo Brazil Brewing Co.,Novo Brazil Brewing Co.,https://twitter.com/novobrazilbrew,https://www.facebook.com/novobrazilbrewing/,https://www.instagram.com/novobrazil/,197952,32.6520158,-116.9614181,901 Lane Ave.,Chula Vista,California,US,True,True,False,True,True,False
172,The Lost Abbey,"The Lost Abbey, Cardiff Confessional",https://twitter.com/lostabbey,https://www.facebook.com/port.lostabbey,http://instagram.com/lostabbey,2712,33.0221861,-117.282216,2007 San Elijo Ave,Encinitas,California,US,True,True,False,False,True,False
173,The Lost Abbey,"The Lost Abbey, San Marcos",https://twitter.com/lostabbey,https://www.facebook.com/port.lostabbey,http://instagram.com/lostabbey,2712,33.1416273,-117.1492671,"155 Mata Way, Ste #104",San Marcos,California,US,False,True,False,True,True,False
174,Duck Foot Brewing Co.,Duck Foot Brewing Co. Taproom & Brewery | Miramar,https://twitter.com/duckfootbeer,https://www.facebook.com/DuckFootBeer/,https://www.instagram.com/duckfootbeer/,105084,32.8854988,-117.1563922,"8920 Kenamar Drive, Suite #210",San Diego,California,US,True,True,False,False,True,False
175,Duck Foot Brewing Co.,Duck Foot Taproom & Kitchen | East Village,https://twitter.com/duckfootbeer,https://www.facebook.com/DuckFootBeer/,https://www.instagram.com/duckfootbeer/,105084,32.7108972,-117.1541951,550 Park Blvd Ste 2104,San Diego,California,US,False,False,False,False,False,False
176,Duck Foot Brewing Co.,Duck Foot Brewing Co. Taproom & Kitchen | East Village,https://twitter.com/duckfootbeer,https://www.facebook.com/DuckFootBeer/,https://www.instagram.com/duckfootbeer/,105084,32.7108972,-117.1541951,550 Park Boulevard Ste 2104,San Diego,California,US,True,True,True,False,True,False
177,Duck Foot Brewing Co.,Beachside Bar & Grill,https://twitter.com/duckfootbeer,https://www.facebook.com/DuckFootBeer/,https://www.instagram.com/duckfootbeer/,105084,33.0417019,-117.2935586,806 S Coast Hwy 101,Encinitas,California,US,False,False,False,False,False,False
178,Duck Foot Brewing Co.,Blind Lady Ale House,https://twitter.com/duckfootbeer,https://www.facebook.com/DuckFootBeer/,https://www.instagram.com/duckfootbeer/,105084,32.763498,-117.1203007,3416 Adams Ave,San Diego,California,US,False,False,False,False,False,False
179,Duck Foot Brewing Co.,SoCal SkateShop,https://twitter.com/duckfootbeer,https://www.facebook.com/DuckFootBeer/,https://www.instagram.com/duckfootbeer/,105084,33.6147431,-117.6809898,24002 Vía Fabricante #404,Mission Viejo,California,US,False,False,False,False,False,False
180,Jacked Up Brewery,Jacked Up Brewery,,https://www.facebook.com/JackedUpBrewery/,https://www.instagram.com/jackedupbrewery/,319612,33.1173091,-117.0917422,800 W Grand Avenue,Escondido,California,US,True,True,False,True,False,False
181,San Diego Brewers Guild,Valley View Casino Center,https://twitter.com/sdbrewers,https://www.facebook.com/SDBrewersGuild,https://www.instagram.com/sdbrewers,368821,32.7551821,-117.2123081,3500 Sports Arena Blvd,San Diego,California,US,False,False,False,False,False,False
182,San Diego Brewers Guild,The Abbey,https://twitter.com/sdbrewers,https://www.facebook.com/SDBrewersGuild,https://www.instagram.com/sdbrewers,368821,32.7348665,-117.1600683,2825 Fifth Ave,San Diego,California,US,False,False,False,False,False,True
183,San Diego Brewers Guild,Historic Vista Village,https://twitter.com/sdbrewers,https://www.facebook.com/SDBrewersGuild,https://www.instagram.com/sdbrewers,368821,33.202454,-117.239838,S. Citrus Ave. and E. Broadway,Vista,California,US,False,False,False,False,False,False
184,San Diego Brewers Guild,Rancho Bernardo Inn Golf Course,https://twitter.com/sdbrewers,https://www.facebook.com/SDBrewersGuild,https://www.instagram.com/sdbrewers,368821,33.031738,-117.0666914,17550 Bernardo Oaks Drive,San Diego,California,US,False,False,False,False,False,False
185,San Diego Brewers Guild,Embarcadero Marina Park South,https://twitter.com/sdbrewers,https://www.facebook.com/SDBrewersGuild,https://www.instagram.com/sdbrewers,368821,32.7038654,-117.1643418,200 Marina Park Way,San Diego ,California,US,False,False,False,False,False,False
186,San Diego Brewers Guild,The Lodge at Torrey Pines,https://twitter.com/sdbrewers,https://www.facebook.com/SDBrewersGuild,https://www.instagram.com/sdbrewers,368821,32.9041197,-117.2446315,11480 North Torrey Pines Road,San Diego,California,US,False,False,False,False,False,False
187,San Diego Brewers Guild,Morley Field Disc Golf Course,https://twitter.com/sdbrewers,https://www.facebook.com/SDBrewersGuild,https://www.instagram.com/sdbrewers,368821,32.7366475,-117.1359448,3090 Pershing Drive,San Diego,California,US,False,False,False,False,False,False
188,San Diego Brewers Guild,Toronado,https://twitter.com/sdbrewers,https://www.facebook.com/SDBrewersGuild,https://www.instagram.com/sdbrewers,368821,32.7508479,-117.1305141,4026 30th St,San Diego,California,US,False,False,False,False,False,False
189,San Diego Brewers Guild,Historic Vista Village,https://twitter.com/sdbrewers,https://www.facebook.com/SDBrewersGuild,https://www.instagram.com/sdbrewers,368821,33.202454,-117.239838,S. Citrus Ave. and E. Broadway ,Vista,California,US,False,False,False,False,False,False
190,San Diego Brewers Guild,"Marina Green Park, Long Beach",https://twitter.com/sdbrewers,https://www.facebook.com/SDBrewersGuild,https://www.instagram.com/sdbrewers,368821,33.7613665,-118.1868015,386 E Shoreline Dr,Long Beach,California,US,False,False,False,False,False,False
191,San Diego Brewers Guild,Embarcadero Marina Park North,https://twitter.com/sdbrewers,https://www.facebook.com/SDBrewersGuild,https://www.instagram.com/sdbrewers,368821,32.7068759,-117.1689367,400 Kettner Blvd,San Diego,California,US,False,False,False,False,False,False
192,San Diego Brewers Guild,Embarcadero Marina Park North,https://twitter.com/sdbrewers,https://www.facebook.com/SDBrewersGuild,https://www.instagram.com/sdbrewers,368821,32.7068759,-117.1689367,400 Kettner Blvd,San Diego,California,US,False,False,False,False,False,False
193,San Diego Brewers Guild,Churchill's Pub & Grille,https://twitter.com/sdbrewers,https://www.facebook.com/SDBrewersGuild,https://www.instagram.com/sdbrewers,368821,33.1353458,-117.1846737,887 W San Marcos Blvd,San Marcos,California,US,False,False,False,False,False,False
194,San Diego Brewers Guild,"5469 Casino Way El Cajon, California",https://twitter.com/sdbrewers,https://www.facebook.com/SDBrewersGuild,https://www.instagram.com/sdbrewers,368821,32.7859988,-116.8300324,5469 Casino Way,El Cajon,California,US,False,False,False,False,False,False
195,San Diego Brewers Guild,Instagram,https://twitter.com/sdbrewers,https://www.facebook.com/SDBrewersGuild,https://www.instagram.com/sdbrewers,368821,32.7355,-117.216008,123,San Diego,California,US,False,False,False,False,False,False
196,San Diego Brewers Guild,Google Meet,https://twitter.com/sdbrewers,https://www.facebook.com/SDBrewersGuild,https://www.instagram.com/sdbrewers,368821,32.7355,-117.216008,123,San Diego,California,US,False,False,False,False,False,False
197,Bear Roots Brewing Co.,Bear Roots Brewery,https://twitter.com/BearRootsBrew,https://www.facebook.com/bearrootsbrew,https://www.instagram.com/bearrootsbrew/,185521,33.1882451,-117.2263421,1213 S Santa Fe Ave,Vista,California,US,True,True,False,False,True,False
198,Bear Roots Brewing Co.,Bear Roots Downtown,https://twitter.com/BearRootsBrew,https://www.facebook.com/bearrootsbrew,https://www.instagram.com/bearrootsbrew/,185521,33.2008819,-117.2419999,135 E Broadway,Vista ,California,US,True,True,True,False,False,False
199,San Diego Brewing Company,San Diego Brewing Company,https://twitter.com/SanDiegoBrewing,https://www.facebook.com/SanDiegoBrewing,https://www.instagram.com/sandiegobrewing/,2904,32.7923422,-117.0989052,10450 Friars Road,San Diego,California,US,False,True,True,False,True,False
200,Pizza Port Brewing Co.,Pizza Port Ocean Beach,https://twitter.com/PizzaPortBeer,https://www.facebook.com/pizzaportbrewingco/,https://www.instagram.com/pizzaportbrewingco/,1534,32.7479652,-117.250302,1956 Bacon Street,San Diego,California,US,True,True,True,False,True,False
201,Pizza Port Brewing Co.,Pizza Port Bressi Ranch,https://twitter.com/PizzaPortBeer,https://www.facebook.com/pizzaportbrewingco/,https://www.instagram.com/pizzaportbrewingco/,1534,33.1286712,-117.2500668,2730 Gateway Road,Carlsbad,California,US,True,True,True,False,True,False
202,Pizza Port Brewing Co.,Pizza Port San Clemente,https://twitter.com/PizzaPortBeer,https://www.facebook.com/pizzaportbrewingco/,https://www.instagram.com/pizzaportbrewingco/,1534,33.4288491,-117.613458,301 N El Camino Real,San Clemente,California,US,True,True,True,False,True,False
203,Pizza Port Brewing Co.,Pizza Port Carlsbad,https://twitter.com/PizzaPortBeer,https://www.facebook.com/pizzaportbrewingco/,https://www.instagram.com/pizzaportbrewingco/,1534,33.1599094,-117.3477378,571 Carlsbad Village Drive,Carlsbad,California,US,True,True,True,False,True,False
204,Pizza Port Brewing Co.,Pizza Port Solana Beach,https://twitter.com/PizzaPortBeer,https://www.facebook.com/pizzaportbrewingco/,https://www.instagram.com/pizzaportbrewingco/,1534,32.9908157,-117.2717034,135 N. Highway 101,Solana Beach,California,US,True,True,True,False,True,False
205,Pizza Port Brewing Co.,Oakland Zoo,https://twitter.com/PizzaPortBeer,https://www.facebook.com/pizzaportbrewingco/,https://www.instagram.com/pizzaportbrewingco/,1534,37.753725,-122.1503667,9777 Golf Links Road,Oakland,California,US,False,False,False,False,False,False
206,Pizza Port Brewing Co.,Cal Expo,https://twitter.com/PizzaPortBeer,https://www.facebook.com/pizzaportbrewingco/,https://www.instagram.com/pizzaportbrewingco/,1534,38.5925839,-121.4358286,1600 Exposition Blvd.,Sacramento,California,US,False,False,False,False,False,False
207,Pizza Port Brewing Co.,Pechanga Arena San Diego,https://twitter.com/PizzaPortBeer,https://www.facebook.com/pizzaportbrewingco/,https://www.instagram.com/pizzaportbrewingco/,1534,32.7551821,-117.2123081,3500 Sports Arena Boulevard,San Diego,California,US,False,False,False,False,False,False
208,Pizza Port Brewing Co.,Encinitas Ranch Golf Course,https://twitter.com/PizzaPortBeer,https://www.facebook.com/pizzaportbrewingco/,https://www.instagram.com/pizzaportbrewingco/,1534,33.0684353,-117.2754733,1275 Quail Gardens Dr.,Encinitas,California,US,False,False,False,False,False,False
209,Societe Brewing Company,Societe Brewing Company Tasting room,https://twitter.com/SocieteBrewing,https://www.facebook.com/societebrewing,http://instagram.com/societebrewing,29606,32.8338579,-117.1463732,8262 Clairemont Mesa Blvd,San Diego,California,US,True,True,False,True,True,False
210,Societe Brewing Company,SOCIETE BREWING COMPANY - TASTING ROOM,https://twitter.com/SocieteBrewing,https://www.facebook.com/societebrewing,http://instagram.com/societebrewing,29606,32.8338579,-117.1463732,8262 CLAIREMONT MESA BLVD,SAN DIEGO,California,US,False,False,False,False,False,False
211,Societe Brewing Company,The Cork and Craft at Abnormal,https://twitter.com/SocieteBrewing,https://www.facebook.com/societebrewing,http://instagram.com/societebrewing,29606,33.0236355,-117.0859077,"16990 Via Tazon, Ste 123",San Diego,California,US,False,False,False,False,False,False
212,Societe Brewing Company,Pechanga Arena San Diego,https://twitter.com/SocieteBrewing,https://www.facebook.com/societebrewing,http://instagram.com/societebrewing,29606,32.7551821,-117.2123081,3500 Sports Arena Blvd,San Diego,California,US,False,False,False,False,False,False
213,Rip Current Brewing Company,Rip Current Brewing Company North Park ,https://twitter.com/ripcurrentbeer,https://www.facebook.com/RipCurrentBrewing,http://instagram.com/ripcurrentbrewing,45616,32.752388,-117.129807,4101 30th Street,San Diego,California,US,False,True,True,False,True,False
214,Rip Current Brewing Company,Rip Current Brewing Company,https://twitter.com/ripcurrentbeer,https://www.facebook.com/RipCurrentBrewing,http://instagram.com/ripcurrentbrewing,45616,33.1428399,-117.1925133,1325 Grand Avenue #100,San Marcos,California,US,True,True,False,True,True,False
215,Rip Current Brewing Company,Rip Current Brewing San Marcos & North Park,https://twitter.com/ripcurrentbeer,https://www.facebook.com/RipCurrentBrewing,http://instagram.com/ripcurrentbrewing,45616,33.1427524,-117.1925073,1325 Grand Ave,San Marcos,California,US,False,False,False,False,False,False
216,Longship Brewery,Longship Brewery,https://twitter.com/longshipbrewery,https://www.facebook.com/LongshipBrewery,https://www.instagram.com/longshipbrewery/,119510,32.9040608,-117.1714639,10320 Camino Santa Fe Ste C,San Diego,California,US,True,True,False,True,True,False
217,Longship Brewery,The Interwebs,https://twitter.com/longshipbrewery,https://www.facebook.com/LongshipBrewery,https://www.instagram.com/longshipbrewery/,119510,32.8294726,-117.1483964,Zoom Avenue,San Diego,California,US,False,False,False,False,False,False
218,The Brewers Tap Room,The Brewers Tap Room,,https://www.facebook.com/TheBrewersTapRoom,https://www.instagram.com/thebrewerstaproom/,,33.0458295,-117.2574027,1456 Encinitas Blvd,Encinitas,California,US,False,False,False,False,False,False
219,Alpine Beer Company,Alpine Beer Co. Pub,,https://www.facebook.com/alpinebeercompany,https://www.instagram.com/alpinebeerco/,29,32.8363379,-116.7769233,1347 Tavern Rd,Alpine,California,US,True,True,True,False,False,False
220,Alpine Beer Company,Alpine Brewery,,https://www.facebook.com/alpinebeercompany,https://www.instagram.com/alpinebeerco/,29,32.835185,-116.762648,2363 Alpine Blvd,Alpine,California,US,True,True,False,True,True,False
221,Alpine Beer Company,The Riviera Supper Club,,https://www.facebook.com/alpinebeercompany,https://www.instagram.com/alpinebeerco/,29,32.7622918,-117.0296177,7777 University Ave.,La Mesa ,California,US,False,False,False,False,False,False
222,Alpine Beer Company,O'Brien's Pub,,https://www.facebook.com/alpinebeercompany,https://www.instagram.com/alpinebeerco/,29,32.8248571,-117.1559327,4646 Convoy St,San Diego ,California,US,False,False,False,False,False,False
223,Alpine Beer Company,Embarcadero South ,,https://www.facebook.com/alpinebeercompany,https://www.instagram.com/alpinebeerco/,29,32.7038654,-117.1643418,200 Marina Park Way,San Diego ,California,US,False,False,False,False,False,False
224,Alpine Beer Company,Embarcadero South ,,https://www.facebook.com/alpinebeercompany,https://www.instagram.com/alpinebeerco/,29,32.7038654,-117.1643418,200 Marina Park Way,San Diego ,California,US,False,False,False,False,False,False
225,Alpine Beer Company,SD TapRoom ,,https://www.facebook.com/alpinebeercompany,https://www.instagram.com/alpinebeerco/,29,32.7983069,-117.2467138,1269 Garnet Ave,San Diego ,California,US,False,False,False,False,False,False
226,Alpine Beer Company,Tom Ham’s Lighthouse,,https://www.facebook.com/alpinebeercompany,https://www.instagram.com/alpinebeerco/,29,32.7241604,-117.2130387,2150 Harbor Island Dr,San Diego ,California,US,False,False,False,False,False,False
227,Alpine Beer Company,CoinOp ,,https://www.facebook.com/alpinebeercompany,https://www.instagram.com/alpinebeerco/,29,32.74903270000001,-117.1303769, 3926 30th Street,San Diego ,California,US,False,False,False,False,False,False
228,Alpine Beer Company, Clem's Tap House,,https://www.facebook.com/alpinebeercompany,https://www.instagram.com/alpinebeerco/,29,32.7636592,-117.1069971,4108 Adams Ave,San Diego ,California,US,False,False,False,False,False,False
229,Alpine Beer Company,OB Noodle House ,,https://www.facebook.com/alpinebeercompany,https://www.instagram.com/alpinebeerco/,29,32.7513321,-117.2448288,2218 Cable St,San Diego ,California,US,False,False,False,False,False,False
230,Alpine Beer Company,North Park Observatory,,https://www.facebook.com/alpinebeercompany,https://www.instagram.com/alpinebeerco/,29,32.7481756,-117.131383,2891 University Ave,San Diego ,California,US,False,False,False,False,False,False
231,Alpine Beer Company,Toronado ,,https://www.facebook.com/alpinebeercompany,https://www.instagram.com/alpinebeerco/,29,32.7508479,-117.1305141,4026 30th St,San Diego ,California,US,False,False,False,False,False,False
232,Alpine Beer Company,Gelson's Carlsbad ,,https://www.facebook.com/alpinebeercompany,https://www.instagram.com/alpinebeerco/,29,33.0873436,-117.2671087,7660 El Camino Real,Carlsbad,California,US,False,False,False,False,False,False
233,Alpine Beer Company,Gelson's Del Mar ,,https://www.facebook.com/alpinebeercompany,https://www.instagram.com/alpinebeerco/,29,32.9788941,-117.2489571,pin 2707 Via De La Valle,Del Mar,California,US,False,False,False,False,False,False
234,Alpine Beer Company,Gelson's Del Mar ,,https://www.facebook.com/alpinebeercompany,https://www.instagram.com/alpinebeerco/,29,32.9788941,-117.2489571,pin 2707 Via De La Valle,Del Mar,California,US,False,False,False,False,False,False
235,Alpine Beer Company,Gelson's Del Mar ,,https://www.facebook.com/alpinebeercompany,https://www.instagram.com/alpinebeerco/,29,32.9788941,-117.2489571, 2707 Via De La Valle,Del Mar,California,US,False,False,False,False,False,False
236,Alpine Beer Company,Joan MacQueen Middle School,,https://www.facebook.com/alpinebeercompany,https://www.instagram.com/alpinebeerco/,29,32.824651,-116.7753371,2001 Tavern Road,Alpine,California,US,False,False,False,False,False,False
237,Alpine Beer Company,Barracks 17 Liberty Station,,https://www.facebook.com/alpinebeercompany,https://www.instagram.com/alpinebeerco/,29,32.7385625,-117.2125976,2710 Historic Decatur Rd,San Diego,California,US,False,False,False,False,False,False
238,Alpine Beer Company,The Joint ,,https://www.facebook.com/alpinebeercompany,https://www.instagram.com/alpinebeerco/,29,32.7460576,-117.2493742,4902 Newport Ave,San Diego ,California,US,False,False,False,False,False,False
239,Alpine Beer Company,Best Pizza & Brew Cardiff ,,https://www.facebook.com/alpinebeercompany,https://www.instagram.com/alpinebeerco/,29,33.020641,-117.282061,102 Aberdeen Dr,Cardiff ,California,US,False,False,False,False,False,False
240,Alpine Beer Company,Beerfish,,https://www.facebook.com/alpinebeercompany,https://www.instagram.com/alpinebeerco/,29,32.9071098,-117.1777588,6550 Mira Mesa Blvd,San Diego,California,US,False,False,False,False,False,False
241,Alpine Beer Company,Encinitas Biergarden ,,https://www.facebook.com/alpinebeercompany,https://www.instagram.com/alpinebeerco/,29,33.0441038,-117.2933749,641 S Coast Hwy 101,Encinitas,California,US,False,False,False,False,False,False
242,Alpine Beer Company,Encinitas Biergarden ,,https://www.facebook.com/alpinebeercompany,https://www.instagram.com/alpinebeerco/,29,33.0441038,-117.2933749,641 S Coast Hwy 101,Encinitas,California,US,False,False,False,False,False,False
243,Alpine Beer Company,Regal Seagull,,https://www.facebook.com/alpinebeercompany,https://www.instagram.com/alpinebeerco/,29,33.0660361,-117.303041,996 N Coast Hwy 101,Encinitas,California,US,False,False,False,False,False,False
244,Alpine Beer Company,West Coast Smoke and Tap House,,https://www.facebook.com/alpinebeercompany,https://www.instagram.com/alpinebeerco/,29,32.7910643,-117.021502,6126 Lake Murray Blvd,La Mesa,California,US,False,False,False,False,False,False
245,Burgeon Beer Company,Burgeon Beer Company,https://twitter.com/burgeonbeer,https://www.facebook.com/burgeonbeer/,https://www.instagram.com/burgeonbeer/,306680,33.1197823,-117.272939,6350 Yarrow Drive,Carlsbad,California,US,True,True,False,True,True,False
246,Second Chance Beer Company,Second Chance Brewery & Tap Room,https://twitter.com/2ndChanceBeerCo,https://www.facebook.com/secondchancebeercompany/,https://www.instagram.com/secondchancebeer/,215181,32.9948416,-117.0821519,15378 Avenue of Science #222,San Diego,California,US,False,True,False,True,True,False
247,Second Chance Beer Company,Encinitas Ale House,https://twitter.com/2ndChanceBeerCo,https://www.facebook.com/secondchancebeercompany/,https://www.instagram.com/secondchancebeer/,215181,33.0384973,-117.2931056,1044 S Coast Hwy 101,Encinitas,California,US,True,True,True,False,False,False
248,Second Chance Beer Company,Second Chance Beer Lounge,https://twitter.com/2ndChanceBeerCo,https://www.facebook.com/secondchancebeercompany/,https://www.instagram.com/secondchancebeer/,215181,32.7512106,-117.1298675,4045 30th Street Ste. A,San Diego,California,US,True,True,False,False,True,False
249,Second Chance Beer Company,Tin Roof,https://twitter.com/2ndChanceBeerCo,https://www.facebook.com/secondchancebeercompany/,https://www.instagram.com/secondchancebeer/,215181,32.7122952,-117.1607576,401 G Street,San Diego,California,US,True,True,True,False,False,False
250,Second Chance Beer Company,The WineSellar & Brasserie,https://twitter.com/2ndChanceBeerCo,https://www.facebook.com/secondchancebeercompany/,https://www.instagram.com/secondchancebeer/,215181,32.9035498,-117.1830426,9550 Waples Street #115,San Diego,California,US,False,False,True,False,False,False
251,Second Chance Beer Company,Flagship Cruises & Events,https://twitter.com/2ndChanceBeerCo,https://www.facebook.com/secondchancebeercompany/,https://www.instagram.com/secondchancebeer/,215181,32.7151808,-117.1733382,990 N. Harbor Drive,San Diego,California,US,False,False,False,False,False,False
252,Second Chance Beer Company,Balboa Park,https://twitter.com/2ndChanceBeerCo,https://www.facebook.com/secondchancebeercompany/,https://www.instagram.com/secondchancebeer/,215181,32.7311055,-117.1495474,1549 El Prado,San Diego,California,US,False,False,False,False,False,False
253,Second Chance Beer Company,Second Chance Beer Lounge ,https://twitter.com/2ndChanceBeerCo,https://www.facebook.com/secondchancebeercompany/,https://www.instagram.com/secondchancebeer/,215181,32.7512,-117.1298532,4045 30th Street,San Diego,California,US,False,False,False,False,False,False
254,North Park Beer Co.,North Park Beer Co.,https://twitter.com/NorthParkBeerCo,https://www.facebook.com/NorthParkBeerCo/,https://www.instagram.com/northparkbeerco/,8432,32.7487249,-117.1291302,3038 University Ave.,San Diego,California,US,True,True,True,False,True,False
255,North Park Beer Co.,Regents Pizzeria,https://twitter.com/NorthParkBeerCo,https://www.facebook.com/NorthParkBeerCo/,https://www.instagram.com/northparkbeerco/,8432,32.8732268,-117.2174992,"4150 Regents Park Row, Ste 100",La Jolla,California,US,False,False,False,False,False,False
256,North Park Beer Co.,The Regal Seagull,https://twitter.com/NorthParkBeerCo,https://www.facebook.com/NorthParkBeerCo/,https://www.instagram.com/northparkbeerco/,8432,33.0660361,-117.303041,996 N Coast Hwy 101,Encinitas,California,US,False,False,False,False,False,False
257,North Park Beer Co.,Eureka Burger,https://twitter.com/NorthParkBeerCo,https://www.facebook.com/NorthParkBeerCo/,https://www.instagram.com/northparkbeerco/,8432,32.8703583,-117.2119177,4353 La Jolla Village Drive,San Diego,California,US,False,False,False,False,False,False
258,Belching Beaver Brewery,Belching Beaver Brewery Tavern & Grill,,https://www.facebook.com/pages/The-Belching-Beaver/157351577682127,https://twitter.com/belchingbeaver,43025,33.2021206,-117.2410235,302 East Broadway,Vista,California,US,True,True,True,False,True,False
259,Belching Beaver Brewery,Belching Beaver Brewery North Park,,https://www.facebook.com/pages/The-Belching-Beaver/157351577682127,https://twitter.com/belchingbeaver,43025,32.7547495,-117.1300721,4223 30th Street,San Diego,California,US,True,False,False,True,True,False
260,Belching Beaver Brewery,Belching Beaver Brewery Ocean Beach,,https://www.facebook.com/pages/The-Belching-Beaver/157351577682127,https://twitter.com/belchingbeaver,43025,32.7453979,-117.2480881,4836 Newport Ave,San Diego,California,US,True,True,False,False,True,False
261,Belching Beaver Brewery,Belching Beaver Brewery Oceanside,,https://www.facebook.com/pages/The-Belching-Beaver/157351577682127,https://twitter.com/belchingbeaver,43025,33.21252865305055,-117.291643110376,1334 Rocky Point Dr,Oceanside,California,US,True,True,False,True,True,False
262,Belching Beaver Brewery,Belching  Beaver Brewery Pub980,,https://www.facebook.com/pages/The-Belching-Beaver/157351577682127,https://twitter.com/belchingbeaver,43025,33.1450194,-117.2296725,"980 Park Center Drive, Suite A",Vista,California,US,True,True,True,False,True,False
263,Karl Strauss Brewing Company,Karl Strauss Downtown San Diego,https://twitter.com/karlstraussbeer,https://www.facebook.com/KarlStraussBrewingCompany,http://instagram.com/karlstraussbeer,1880,32.7174547,-117.1670758,1157 Columbia St,San Diego,California,US,False,True,True,False,True,False
264,Karl Strauss Brewing Company,Karl Strauss Main Brewery Tasting Room,https://twitter.com/karlstraussbeer,https://www.facebook.com/KarlStraussBrewingCompany,http://instagram.com/karlstraussbeer,1880,32.8320492,-117.2312344,5985 Santa Fe Street,San Diego,California,US,True,True,False,False,True,False
265,Karl Strauss Brewing Company,Karl Strauss Carlsbad,https://twitter.com/karlstraussbeer,https://www.facebook.com/KarlStraussBrewingCompany,http://instagram.com/karlstraussbeer,1880,33.1244064,-117.3140153,5801 Armada Drive,Carlsbad,California,US,False,True,True,False,True,False
266,Karl Strauss Brewing Company,Karl Strauss 4S Ranch,https://twitter.com/karlstraussbeer,https://www.facebook.com/KarlStraussBrewingCompany,http://instagram.com/karlstraussbeer,1880,33.0214603,-117.1134033,10448 Reserve Drive,San Diego,California,US,False,True,True,False,True,False
267,Karl Strauss Brewing Company,Karl Strauss La Jolla,https://twitter.com/karlstraussbeer,https://www.facebook.com/KarlStraussBrewingCompany,http://instagram.com/karlstraussbeer,1880,32.8471174,-117.2735361,1044 Wall Street,La Jolla,California,US,False,True,True,False,True,False
268,Karl Strauss Brewing Company,Karl Strauss Sorrento Mesa,https://twitter.com/karlstraussbeer,https://www.facebook.com/KarlStraussBrewingCompany,http://instagram.com/karlstraussbeer,1880,32.896535,-117.2017648,9675 Scranton Road,San Diego,California,US,False,True,True,False,True,False
269,Karl Strauss Brewing Company,North Park Observatory Parking Lot,https://twitter.com/karlstraussbeer,https://www.facebook.com/KarlStraussBrewingCompany,http://instagram.com/karlstraussbeer,1880,32.7481756,-117.131383,2891 University Ave,San Diego,California,US,False,False,False,True,False,True
270,Latchkey Brewing,Latchkey Brewing,https://twitter.com/latchkeybrewing,https://www.facebook.com/latchkeybeer/,https://www.instagram.com/latchkeybrewing/,388099,32.7422734,-117.184648,1795 Hancock Street,San Diego,California,US,True,True,False,True,True,False
271,Resident Brewing Co.,Resident Brewing Co.,https://twitter.com/ResidentBrewing,https://www.facebook.com/residentbrewing/,https://www.instagram.com/residentbrewing/,252227,32.716509,-117.1608185,1065 4th Avenue,San Diego,California,US,False,True,True,False,True,False
272,Resident Brewing Co.,The Local Eatery & Drinking Hole,https://twitter.com/ResidentBrewing,https://www.facebook.com/residentbrewing/,https://www.instagram.com/residentbrewing/,252227,32.716526,-117.1609477,1065 Fourth Ave,San Diego,California,US,False,False,False,False,False,False
273,Resident Brewing Co.,The Local Eatery & Drinking Hole,https://twitter.com/ResidentBrewing,https://www.facebook.com/residentbrewing/,https://www.instagram.com/residentbrewing/,252227,32.716526,-117.1609477,1065 Fourth Ave,San Diego,California,US,False,False,False,False,False,False
274,Resident Brewing Co.,The Rabbit Hole ,https://twitter.com/ResidentBrewing,https://www.facebook.com/residentbrewing/,https://www.instagram.com/residentbrewing/,252227,32.7631088,-117.12111,3377 Adams Ave,San Diego ,California,US,False,False,False,False,False,False
275,Pacific Beach AleHouse,Pacific Beach Ale House,https://twitter.com/pb_alehouse,https://www.facebook.com/PacificBeachAleHouse,http://instagram.com/pb_alehouse,964,32.7942275,-117.2553097,721 Grand Avenue,San Diego,California,US,False,True,True,False,True,False
276,Little Miss Brewing,Little Miss Brewing Tasting room,https://twitter.com/littlemissbrew,https://www.facebook.com/littlemissbrewing/,https://www.instagram.com/littlemissbrewing/,288655,32.891599,-117.1484939,"7949 Stromesa Ct, Ste Y",San Diego,California,US,True,True,False,True,True,False
277,Little Miss Brewing,Little Miss Brewing normal heights ,https://twitter.com/littlemissbrew,https://www.facebook.com/littlemissbrewing/,https://www.instagram.com/littlemissbrewing/,288655,32.7635164,-117.1169386,3514 Adams ave,San Diego ,California,US,True,True,False,True,True,False
278,Little Miss Brewing,Little Miss Brewing east village,https://twitter.com/littlemissbrew,https://www.facebook.com/littlemissbrewing/,https://www.instagram.com/littlemissbrewing/,288655,32.7111075,-117.1536527,545 Park Blvd ,San diego,California,US,True,True,False,True,True,False
279,Little Miss Brewing,All locations,https://twitter.com/littlemissbrew,https://www.facebook.com/littlemissbrewing/,https://www.instagram.com/littlemissbrewing/,288655,32.8921483,-117.1483505,7949 Stromesa Court Ste Y,San Diego ,California,US,False,False,False,False,False,False
280,O'Brien's Pub,O'Brien's Pub,https://twitter.com/ObriensPubSD,https://www.facebook.com/obrienspubsd/,https://www.instagram.com/ObriensPubSD/,,32.8249132,-117.1557172,4646 Convoy Street,San Diego,California,US,False,False,False,False,False,False
281,Wavelength Brewing Co.,Wavelength Brewing Company,https://twitter.com/Wavelength_Brew,https://www.facebook.com/wavelengthbrewingco,https://www.instagram.com/wavelengthbrewco/,174555,33.20262917631785,-117.24216578321534,236 Main St,Vista,California,US,True,True,False,True,True,False
282,Green Flash Brewing Co.,Green Flash Brewing Co.,https://twitter.com/greenflashbeer,https://www.facebook.com/GreenFlashBrew,http://instagram.com/greenflashbeer,609,32.9071098,-117.1777588,6550 Mira Mesa Blvd,San Diego,California,US,True,True,False,True,True,False
283,Green Flash Brewing Co.,Sammy's Woodfired Pizza & Grill- San Marcos ,https://twitter.com/greenflashbeer,https://www.facebook.com/GreenFlashBrew,http://instagram.com/greenflashbeer,609,33.1420459,-117.1917952,"121 S. Las Posas Rd., Ste 102",San Marcos,California,US,False,False,False,False,False,False
284,Green Flash Brewing Co.,Sammy's Woodfired Pizza & Grill - Del Mar,https://twitter.com/greenflashbeer,https://www.facebook.com/GreenFlashBrew,http://instagram.com/greenflashbeer,609,32.95231130000001,-117.2325894,"12925 El Camino Real, J-21",San Diego,California,US,False,False,False,False,False,False
285,Green Flash Brewing Co.,Green Flash + Sammy's Woodfired Pizza & Grill - Mission Valley ,https://twitter.com/greenflashbeer,https://www.facebook.com/GreenFlashBrew,http://instagram.com/greenflashbeer,609,32.7708356,-117.1497382,"1620 Camino de la Reina, #E1",San Diego,California,US,False,False,False,False,False,False
286,Green Flash Brewing Co.,Green Flash + Sammy's Woodfired Pizza & Grill - Scripps Ranch,https://twitter.com/greenflashbeer,https://www.facebook.com/GreenFlashBrew,http://instagram.com/greenflashbeer,609,32.9363434,-117.0968298,10785 Scripps Poway Pkwy. #B,San Diego,California,US,False,False,False,False,False,False
287,Green Flash Brewing Co.,Sammy's Woodfired Pizza - Le Mesa ,https://twitter.com/greenflashbeer,https://www.facebook.com/GreenFlashBrew,http://instagram.com/greenflashbeer,609,32.7802521,-117.0141678,"8555 Fletcher Pkwy, Suite 104",Le Mesa ,California,US,False,False,False,False,False,False
288,Green Flash Brewing Co.,Sammy's Woodfired Pizza - La Mesa ,https://twitter.com/greenflashbeer,https://www.facebook.com/GreenFlashBrew,http://instagram.com/greenflashbeer,609,32.7802521,-117.0141678,"8555 Fletcher Pkwy, Suite 104",Le Mesa ,California,US,False,False,False,False,False,False
289,Green Flash Brewing Co.,Music Box ,https://twitter.com/greenflashbeer,https://www.facebook.com/GreenFlashBrew,http://instagram.com/greenflashbeer,609,32.7193819,-117.1681424,"1337 India St.,",San Diego,California,US,False,False,False,False,False,False
290,Green Flash Brewing Co.,The Lafayette Hotel ,https://twitter.com/greenflashbeer,https://www.facebook.com/GreenFlashBrew,http://instagram.com/greenflashbeer,609,32.754849,-117.140722,2223 El Cajon Blvd.,San Diego ,California,US,False,False,False,False,False,False
291,Green Flash Brewing Co., Embarcadero South,https://twitter.com/greenflashbeer,https://www.facebook.com/GreenFlashBrew,http://instagram.com/greenflashbeer,609,32.7038654,-117.1643418,200 Marina Park Way,San Diego ,California,US,False,False,False,False,False,False
292,Green Flash Brewing Co.,Knotty Barrel ,https://twitter.com/greenflashbeer,https://www.facebook.com/GreenFlashBrew,http://instagram.com/greenflashbeer,609,32.7117129,-117.1566909,844 Market St,San Diego ,California,US,False,False,False,False,False,False
293,Green Flash Brewing Co.,SD Tap Room ,https://twitter.com/greenflashbeer,https://www.facebook.com/GreenFlashBrew,http://instagram.com/greenflashbeer,609,32.7983069,-117.2467138,1269 Garnet Ave,San Diego ,California,US,False,False,False,False,False,False
294,Green Flash Brewing Co.,Tom Ham’s Lighthouse,https://twitter.com/greenflashbeer,https://www.facebook.com/GreenFlashBrew,http://instagram.com/greenflashbeer,609,32.7241604,-117.2130387, 2150 Harbor Island Dr,San Diego ,California,US,False,False,False,False,False,False
295,Green Flash Brewing Co.,Prohibition Lounge ,https://twitter.com/greenflashbeer,https://www.facebook.com/GreenFlashBrew,http://instagram.com/greenflashbeer,609,32.7110804,-117.1602925,548 5th Ave,San Diego,California,US,False,False,False,False,False,False
296,Green Flash Brewing Co.,Coin Op ,https://twitter.com/greenflashbeer,https://www.facebook.com/GreenFlashBrew,http://instagram.com/greenflashbeer,609,32.74903270000001,-117.1303769,3926 30th Street,San Diego ,California,US,False,False,False,False,False,False
297,Green Flash Brewing Co.,Neighborhood,https://twitter.com/greenflashbeer,https://www.facebook.com/GreenFlashBrew,http://instagram.com/greenflashbeer,609,32.7123928,-117.157611,777 G Street, San Diego ,California,US,False,False,False,False,False,False
298,Green Flash Brewing Co.,OB Noodle House ,https://twitter.com/greenflashbeer,https://www.facebook.com/GreenFlashBrew,http://instagram.com/greenflashbeer,609,32.7513321,-117.2448288, 2218 Cable St,San Diego ,California,US,False,False,False,False,False,False
299,Green Flash Brewing Co.,Waypoint Public ,https://twitter.com/greenflashbeer,https://www.facebook.com/GreenFlashBrew,http://instagram.com/greenflashbeer,609,32.7471787,-117.1303817,3794 30th St,San Diego ,California,US,False,False,False,False,False,False
300,Green Flash Brewing Co.,Ould Sod ,https://twitter.com/greenflashbeer,https://www.facebook.com/GreenFlashBrew,http://instagram.com/greenflashbeer,609,32.7631726,-117.1212179,3373 Adams Ave ,San Diego ,California,US,False,False,False,False,False,False
301,Green Flash Brewing Co.,The Joint ,https://twitter.com/greenflashbeer,https://www.facebook.com/GreenFlashBrew,http://instagram.com/greenflashbeer,609,32.7460576,-117.2493742,4902 Newport Ave,San Diego ,California,US,False,False,False,False,False,False
302,Green Flash Brewing Co.,Petco Park at the Park,https://twitter.com/greenflashbeer,https://www.facebook.com/GreenFlashBrew,http://instagram.com/greenflashbeer,609,32.707052,-117.1554484,100 Park Blvd ,San Diego ,California,US,False,False,False,False,False,False
303,Green Flash Brewing Co.,San Diego Flagship Cruises,https://twitter.com/greenflashbeer,https://www.facebook.com/GreenFlashBrew,http://instagram.com/greenflashbeer,609,32.7151808,-117.1733382," 990 North Harbor Drive,",San Diego ,California,US,False,False,False,False,False,False
304,Green Flash Brewing Co.,San Diego Flagship Cruises,https://twitter.com/greenflashbeer,https://www.facebook.com/GreenFlashBrew,http://instagram.com/greenflashbeer,609,32.7151808,-117.1733382,990 North Harbor Drive,San Diego,California,US,False,False,False,False,False,False
305,Green Flash Brewing Co.,La Mesa Oktoberfest,https://twitter.com/greenflashbeer,https://www.facebook.com/GreenFlashBrew,http://instagram.com/greenflashbeer,609,32.7657538,-117.0165934,8401 La Mesa Blvd,La Mesa,California,US,False,False,False,False,False,False
306,Green Flash Brewing Co.,Best Pizza & Brew Cardiff ,https://twitter.com/greenflashbeer,https://www.facebook.com/GreenFlashBrew,http://instagram.com/greenflashbeer,609,33.020641,-117.282061,102 Aberdeen Dr,Cradiff ,California,US,False,False,False,False,False,False
307,Green Flash Brewing Co.,Lafayette Hotel,https://twitter.com/greenflashbeer,https://www.facebook.com/GreenFlashBrew,http://instagram.com/greenflashbeer,609,32.754849,-117.140722,2223 El Cajon Blvd,San Diego ,California,US,False,False,False,False,False,False
308,Half Door Brewing Co.,Half Door Brewing Co.,https://twitter.com/HalfDoorBrewing,https://www.facebook.com/HalfDoorBrewingCo,https://www.instagram.com/halfdoorbrewingco/,182395,32.7102641,-117.1562711,903 Island Ave.,San Diego,California,US,True,True,True,False,True,False
309,Knotty Brewing,Knotty Brewing Co.,https://twitter.com/knottybrewing,https://www.facebook.com/knottybrewingco/,https://www.instagram.com/knottybrewing/,276993,32.7117775,-117.1568517,842 Market Street,San Diego,California,US,True,False,False,False,True,True
310,Modern Times Beer,Modern Times North Park Flavordome,https://twitter.com/ModernTimesBeer,https://www.facebook.com/ModernTimesIsYourFriend,http://instagram.com/moderntimesbeer,68356,32.7414894,-117.1299222,3000 Upas Street,San Diego,California,US,False,False,False,False,True,False
311,Modern Times Beer,Modern Times Lomaland Fermentorium,https://twitter.com/ModernTimesBeer,https://www.facebook.com/ModernTimesIsYourFriend,http://instagram.com/moderntimesbeer,68356,32.7542044,-117.2061981,3725 Greenwood Street,San Diego,California,US,False,False,False,True,True,False
312,Modern Times Beer,Waterfront Park ,https://twitter.com/ModernTimesBeer,https://www.facebook.com/ModernTimesIsYourFriend,http://instagram.com/moderntimesbeer,68356,32.721426,-117.171756,1600 Pacific Hwy,San Diego,California,US,False,False,False,False,False,False
313,Modern Times Beer,Modern Times Far West Lounge,https://twitter.com/ModernTimesBeer,https://www.facebook.com/ModernTimesIsYourFriend,http://instagram.com/moderntimesbeer,68356,33.046428,-117.294167,470 S. Coast Hwy 101,Encinitas,California,US,False,True,True,False,True,False
314,Hillcrest Brewing Company,Hillcrest Brewing Company,https://twitter.com/queensofbeer,https://www.facebook.com/HillcrestBrewingCompany,http://instagram.com/mosuniverse,29865,32.749106,-117.1499114,1458 University Avenue,San Diego,California,US,True,True,True,False,False,False
315,Arcana Brewing Company,Arcana Brewing Company,https://twitter.com/ArcanaBrewing,https://www.facebook.com/ArcanaBrewing,http://instagram.com/arcanabrewing,30892,33.140246,-117.27387,5621 Palmer Way,Carlsbad,California,US,True,False,False,True,True,True
316,Nickel Beer Co.,Nickel Beer Company Tasting Room,https://twitter.com/nickelbeerco,https://www.facebook.com/NickelBeerCompany,,94186,33.0764718,-116.5905982,1485 Hollow Glen Road,Julian,California,US,True,True,False,False,True,False
317,32 North Brewing Co.,32 North Taproom,https://twitter.com/32northbrew,https://www.facebook.com/32NorthBrew,https://www.instagram.com/32northbrew/,148865,32.8826783,-117.1648175,8655 Production Ave. Suite A,San Diego,California,US,True,True,False,True,True,False
318,32 North Brewing Co.,Sidecar Bar,https://twitter.com/32northbrew,https://www.facebook.com/32NorthBrew,https://www.instagram.com/32northbrew/,148865,32.7719297,-117.202362,1310 Morena Blvd,San Diego,California,US,False,False,False,False,False,False
319,32 North Brewing Co.,The Ugly Dog Pub,https://twitter.com/32northbrew,https://www.facebook.com/32NorthBrew,https://www.instagram.com/32northbrew/,148865,32.7643823,-117.0621572,6344 El Cajon Blvd,San Diego,California,US,False,False,False,False,False,False
320,32 North Brewing Co.,"Underbelly, North Park ",https://twitter.com/32northbrew,https://www.facebook.com/32NorthBrew,https://www.instagram.com/32northbrew/,148865,32.7414894,-117.1299222,3000 Upas St,San Diego,California,US,False,False,False,False,False,False
321,32 North Brewing Co.,Common Theory Public House,https://twitter.com/32northbrew,https://www.facebook.com/32NorthBrew,https://www.instagram.com/32northbrew/,148865,32.8293895,-117.1528252,4805 Convoy St.,San Diego,California,US,False,False,False,False,False,False
322,32 North Brewing Co.,Sanctum Ale House,https://twitter.com/32northbrew,https://www.facebook.com/32NorthBrew,https://www.instagram.com/32northbrew/,148865,32.5950433,-117.0768898,2638 Main St ste m,Chula Vista,California,US,False,False,False,False,False,False
323,32 North Brewing Co.,52 East Neighborhood Eatery,https://twitter.com/32northbrew,https://www.facebook.com/32NorthBrew,https://www.instagram.com/32northbrew/,148865,32.8377028,-116.9880935,9621 Mission Gorge Rd #101,Santee,California,US,False,False,False,False,False,False
324,32 North Brewing Co.,"Craft Kitchen, La Mesa",https://twitter.com/32northbrew,https://www.facebook.com/32NorthBrew,https://www.instagram.com/32northbrew/,148865,32.756153,-117.0140988,4253 Palm Ave,La Mesa,California,US,False,False,False,False,False,False
325,32 North Brewing Co.,Leroy's Kitchen + Lounge ,https://twitter.com/32northbrew,https://www.facebook.com/32NorthBrew,https://www.instagram.com/32northbrew/,148865,32.6852551,-117.1796196,1015 Orange Ave. ,Coronado,California,US,False,False,False,False,False,False
326,32 North Brewing Co.,Carnita's Snack Shack,https://twitter.com/32northbrew,https://www.facebook.com/32NorthBrew,https://www.instagram.com/32northbrew/,148865,32.7163485,-117.1733019,1004 N Harbor Drive,San Diego,California,US,False,False,False,False,False,False
327,32 North Brewing Co.,Carnita's Snack Shack,https://twitter.com/32northbrew,https://www.facebook.com/32NorthBrew,https://www.instagram.com/32northbrew/,148865,32.7163485,-117.1733019,1004 N Harbor Drive,San Diego,California,US,False,False,False,False,False,False
328,32 North Brewing Co.,Lafayette Hotel ,https://twitter.com/32northbrew,https://www.facebook.com/32NorthBrew,https://www.instagram.com/32northbrew/,148865,32.754849,-117.140722,2223 El Cajon Blvd,San Diego,California,US,False,False,False,False,False,False
329,32 North Brewing Co.,Barrel Republic,https://twitter.com/32northbrew,https://www.facebook.com/32NorthBrew,https://www.instagram.com/32northbrew/,148865,32.7982969,-117.2467896,1261 Garnet Ave.,San Diego,California,US,False,False,False,False,False,False
330,32 North Brewing Co.,Urbn Pizza,https://twitter.com/32northbrew,https://www.facebook.com/32NorthBrew,https://www.instagram.com/32northbrew/,148865,32.7482123,-117.1273485,3085 University Ave ,San Diego ,California,US,False,False,False,False,False,False
331,32 North Brewing Co.,San Diego Zoo ,https://twitter.com/32northbrew,https://www.facebook.com/32NorthBrew,https://www.instagram.com/32northbrew/,148865,32.735614,-117.14908,2920 Zoo Dr,San Diego,California,US,False,False,False,False,False,False
332,32 North Brewing Co.,OB Noodle House & Sake Bar,https://twitter.com/32northbrew,https://www.facebook.com/32NorthBrew,https://www.instagram.com/32northbrew/,148865,32.75130560000001,-117.2448077,2218 Cable St. ,San Diego ,California,US,False,False,False,False,False,False
333,32 North Brewing Co.,West Coast Smoke & Tap House,https://twitter.com/32northbrew,https://www.facebook.com/32NorthBrew,https://www.instagram.com/32northbrew/,148865,32.7910643,-117.021502,6126 Lake Murray Blvd.,La Mesa,California,US,False,False,False,False,False,False
334,32 North Brewing Co.,URBN Pizza,https://twitter.com/32northbrew,https://www.facebook.com/32NorthBrew,https://www.instagram.com/32northbrew/,148865,33.20194,-117.242173,203 Main St.,Vista,California,US,False,False,False,False,False,False
335,32 North Brewing Co.,URBN Pizza,https://twitter.com/32northbrew,https://www.facebook.com/32NorthBrew,https://www.instagram.com/32northbrew/,148865,33.20194,-117.242173,203 Main St.,Vista,California,US,False,False,False,False,False,False
336,Mission Brewery,Mission Brewery,https://twitter.com/missionbrewery,https://www.facebook.com/MissionBrewery,https://www.instagram.com/missionbrewery/,2228,32.7071477,-117.1515916,1441 L Street,San Diego,California,US,True,True,False,True,True,False
337,Mission Brewery,The Cellar and Loft at Mission Brewery,https://twitter.com/missionbrewery,https://www.facebook.com/MissionBrewery,https://www.instagram.com/missionbrewery/,2228,32.7071477,-117.1515916,1441 L street,San Diego,California,US,False,False,False,False,False,False
338,Mission Brewery,Searsucker,https://twitter.com/missionbrewery,https://www.facebook.com/MissionBrewery,https://www.instagram.com/missionbrewery/,2228,32.7117232,-117.1598845,611 Fifth Avenue,San Diego,California,US,False,False,False,False,False,False
339,SouthNorte Beer Co.,SouthNorte Beer Co.,https://twitter.com/southnorte,https://www.facebook.com/Southnorte/,https://www.instagram.com/southnorte/,362490,32.77186410000001,-117.2045482,1205 Knoxville St.,San Diego,California,US,True,True,True,False,True,False
340,SouthNorte Beer Co.,Coronado Brewing Tasting Room - Bay Park,https://twitter.com/southnorte,https://www.facebook.com/Southnorte/,https://www.instagram.com/southnorte/,362490,32.7718721,-117.2045788,1205 Knoxville Street,San Diego,California,US,False,False,False,False,False,False
341,Ebullition Brew Works,Ebullition Brew Works,https://twitter.com/ebullitionbrew/,https://www.facebook.com/EbullitionBrew/,https://www.instagram.com/ebullitionbrew/,339621,33.1537466,-117.2241416,"2449 Cades Way, Suite D",Vista,California,US,True,True,False,True,True,False
342,Automatic Brewing Co.,Automatic Brewing Co.,https://twitter.com/AutomaticBrewCo,https://www.facebook.com/AutomaticBrewingCo-114145628625452,https://www.instagram.com/automaticbrewingco/,1556,32.763498,-117.1203007,3416 Adams Ave,San Diego,California,US,False,True,True,False,True,False
343,Automatic Brewing Co.,Tiger!Tiger! Tavern,https://twitter.com/AutomaticBrewCo,https://www.facebook.com/AutomaticBrewingCo-114145628625452,https://www.instagram.com/automaticbrewingco/,1556,32.7549636,-117.1295545,3025 El Cajon Blvd,San Diego,California,US,False,True,True,False,True,False
344,Burning Beard Brewing,Burning Beard Tasting Room,https://twitter.com/beard_aflame,https://www.facebook.com/BurningBeardBrewing,https://www.instagram.com/burning.beard.brewing/,255519,32.8117415,-116.9724106,785 Vernon Way,El Cajon,California,US,False,True,False,True,True,False
345,Fall Brewing Company,Fall Brewing Company,https://twitter.com/fallbrewing/,https://www.facebook.com/fallbrewing/,https://www.instagram.com/fallbrewingcompany/,169664,32.7600187,-117.1305426,4542 30th St,San Diego,California,US,True,True,False,True,True,False
346,Savagewood Brewing,Savagewood Brewing,https://twitter.com/SavagewoodBeer,https://www.facebook.com/savagewoodbrewing/,https://www.instagram.com/savagewoodbrewing/,351863,32.9132595,-117.1127791,"9879 Hibert St, Suite F",San Diego,California,US,True,True,False,True,True,False
347,Waypoint Public,Waypoint Public,https://twitter.com/waypointpublic,https://www.facebook.com/WaypointPublic,https://www.instagram.com/WaypointPublic/,,32.7471787,-117.1303817,3794 30th St,San Diego,California,US,False,False,False,False,False,False
348,Waypoint Public,Waypoint Public Del Sur,https://twitter.com/waypointpublic,https://www.facebook.com/WaypointPublic,https://www.instagram.com/WaypointPublic/,,33.0127144,-117.1469526,16480 Paseo Del Sur,San Diego,California,US,False,False,False,False,False,False
349,Eureka Restaurant Group,Eureka! La Jolla,,test,,,32.8698342,-117.2121254,4353 La Jolla Village Dr ,San Diego,California,US,False,True,True,False,False,False
350,Eureka Restaurant Group,Eureka! SDSU,,test,,,32.7718918,-117.0703298,5140 College Ave,San Diego,California,US,False,True,True,False,False,False
351,Park & Rec,Park & Rec University Heights,https://twitter.com/ParkandRecSD,https://www.facebook.com/Park-Rec-534361273368354/,https://www.instagram.com/parkandrecsd/,,32.7613457,-117.146404,4612 Park Boulevard,San Diego,California,US,False,False,True,False,False,False
352,Barrel Republic,"Barrel Republic, Oceanside",https://twitter.com/BarrelRepublic,https://www.facebook.com/BarrelRepublic/,https://www.instagram.com/barrelrepublic/,,33.1962744,-117.3801831,215 N Coast Hwy,Oceanside,California,US,False,True,True,False,False,False
353,Barrel Republic,"Barrel Republic, Pacific Beach",https://twitter.com/BarrelRepublic,https://www.facebook.com/BarrelRepublic/,https://www.instagram.com/barrelrepublic/,,32.7982969,-117.2467896,1261 Garnet Ave,San Diego,California,US,False,True,False,False,False,False
354,Bay Park Fish Co.,Bay Park Fish Co. Ashton St,,https://www.facebook.com/bayparkfishco,https://www.instagram.com/bayparkfishco/,,32.7814537,-117.2066345,4121 Ashton St,San Diego,California,US,False,True,True,False,False,False
355,Churchill's Pub & Grille,Churchill's Pub & Grill San Marcos,https://twitter.com/churchills,https://www.facebook.com/ChurchillsPubandGrille?fref=ts,,,33.1353458,-117.1846737,887 W San Marcos Blvd,San Marcos,California,US,True,True,True,False,False,False
356,Common Theory Public House,Common Theory Public House Convoy,https://twitter.com/CommonTheorySD,https://www.facebook.com/commontheorySD?fref=ts,https://www.instagram.com/commontheory/,,32.8293895,-117.1528252,4805 Convoy St,San Diego,California,US,True,True,True,False,False,False
357,Crab Hut Restaurant,"Crab Hut, Downtown",https://twitter.com/crabhut,https://www.facebook.com/crabhut,https://www.instagram.com/crabhut,,32.7158873,-117.1598845,1007 5th Ave #101, San Diego,California,US,False,True,True,False,False,False
358,BattleMage Brewing,BattleMage Brewing Company,https://twitter.com/BattleMageBeer,https://www.facebook.com/Battlemagebrewing/,https://www.instagram.com/battlemage_brewing/,339000,33.14042209999999,-117.227523,2870 Scott Street,Vista,California,US,True,True,False,True,True,False
359,Border X Brewing,Border X Brewing,https://twitter.com/BorderXBrewing,https://www.facebook.com/borderxbrewinglogan/,https://www.instagram.com/borderxbrewing/,91549,32.6980984,-117.1397799,2181 Logan Ave,San Diego,California,US,True,True,True,False,True,False
360,Border X Brewing,Barrio Logan,https://twitter.com/BorderXBrewing,https://www.facebook.com/borderxbrewinglogan/,https://www.instagram.com/borderxbrewing/,91549,32.7021405,-117.1477531,1745 National Ave,San Diego,California,US,False,False,False,False,False,False
361,Hamilton's Tavern,Hamilton's Tavern SD,https://twitter.com/hamiltonstavern,https://www.facebook.com/hamiltonstavernsd/,https://www.instagram.com/hamiltonstavern/?hl=en,,32.7217788,-117.1299946,1521 30th st,San Diego,California,US,False,True,True,False,False,False
362,Inland Tavern,Inland Tavern San Marcos,https://twitter.com/InlandTavern,https://www.facebook.com/inlandtavern/,https://www.instagram.com/inlandtavern/,,33.1337241,-117.1883723,1001 W. San Marcos Blvd. #195 ,San Marcos,California,US,True,True,True,False,False,False
363,La Costa Wine Co.,La Costa Wine Co.,,https://www.facebook.com/LaCostaWine/,,,33.082254,-117.266449,7750 El Camino Real Suite MB,La Costa,California,US,False,False,True,False,False,False
364,Hooleys Irish Pub and Grill,Hooleys Irish Pub and Grill,https://twitter.com/HooleysIrishPub,https://www.facebook.com/HooleysRancho?fref=ts,,,32.77776619999999,-117.0094676,5500 Grossmont Center Dr,La Mesa,California,US,True,True,True,False,False,False
365,Hooleys Irish Pub and Grill,Hooleys Irish Pub and Grill,https://twitter.com/HooleysIrishPub,https://www.facebook.com/HooleysRancho?fref=ts,,,32.7368858,-116.9403434,2955 Jamacha Rd,El Cajon,California,US,True,True,True,False,False,False
366,Live Wire,Live Wire,https://twitter.com/livewirebar?lang=en,https://www.facebook.com/livewirebar/,https://www.instagram.com/livewirebar/?hl=en,,32.7549547,-117.1423715,2103 El Cajon Blvd,San Diego,California,US,True,False,False,False,False,False
367,Oggi's Sports Brewhouse Pizza,"Oggi's Sports Brewhouse Pizza, Del Mar",https://twitter.com/Oggis,https://www.facebook.com/delmaroggis/,https://www.instagram.com/oggispizza/,,32.9542964,-117.2295117,12840 Carmel Country Rd,San Diego,California,US,False,True,True,False,True,False
368,Oggi's Sports Brewhouse Pizza,"N/A - Oggi's Sports Brewhouse Pizza, East Lake",https://twitter.com/Oggis,https://www.facebook.com/delmaroggis/,https://www.instagram.com/oggispizza/,,32.6213074,-116.9616645,2130 Birch Rd Suite 104,Chula Vista,California,US,False,True,True,False,True,False
369,Oggi's Sports Brewhouse Pizza,"Oggi's Sports Brewhouse Pizza, Encinitas",https://twitter.com/Oggis,https://www.facebook.com/delmaroggis/,https://www.instagram.com/oggispizza/,,33.0478371,-117.2854763,305 Encinitas Blvd,Encinitas,California,US,False,True,True,False,True,False
370,Oggi's Sports Brewhouse Pizza,"Oggi's Sports Brewhouse Pizza, Mission Valley",https://twitter.com/Oggis,https://www.facebook.com/delmaroggis/,https://www.instagram.com/oggispizza/,,32.7798411,-117.1292787,"2245 Fenton Parkway, Ste. 101",San Diego,California,US,False,True,True,False,True,False
371,Oggi's Sports Brewhouse Pizza,"Oggi's Sports Brewhouse Pizza, Santee",https://twitter.com/Oggis,https://www.facebook.com/delmaroggis/,https://www.instagram.com/oggispizza/,,32.8409311,-116.9815307,"9828 Mission Gorge Rd, Ste. A",Santee,California,US,False,True,True,False,True,False
372,Oggi's Sports Brewhouse Pizza,"Oggi's Sports Brewhouse Pizza, Vista",https://twitter.com/Oggis,https://www.facebook.com/delmaroggis/,https://www.instagram.com/oggispizza/,,33.1892685,-117.2541759,425 S. Melrose Dr,Vista,California,US,False,True,True,False,True,False
373,Oggi's Sports Brewhouse Pizza,"Oggi's Sports Brewhouse Pizza, Point Loma/Liberty Station",https://twitter.com/Oggis,https://www.facebook.com/delmaroggis/,https://www.instagram.com/oggispizza/,,32.7287337,-117.2174073,2562 Laning Road,San Diego,California,US,False,True,True,False,True,False
374,Panama 66,Panama 66,https://twitter.com/panama66sdma?lang=en,https://www.facebook.com/pages/Panama-66/1775545722692075,https://www.instagram.com/panama66sdma/,,32.732119,-117.1504179,1450 El Prado ,San Diego,California,US,True,True,True,False,False,False
375,Phileas Foggs Bar & Restaurant,Phileas Foggs Bar & Restaurant,https://twitter.com/PhileasFoggs,https://www.facebook.com/PhileasFoggsPub/,,,32.9451648,-117.0848785,11385 Poway Rd,San diego,California,US,True,True,True,False,False,False
376,Priority Public House,Priority Public House,https://twitter.com/prioritypublic,https://www.facebook.com/PriorityPublicHouse?fref=ts,https://www.instagram.com/prioritypublichouse/,,33.0595797,-117.3004236,576 North Coast Highway 101,Encinitas,California,US,True,True,True,False,False,False
377,Regents Pizzeria,Regents Pizzeria,https://twitter.com/RegentsPizza,https://www.facebook.com/RegentsPizzeria/,https://www.instagram.com/regentspizzeria/?hl=en,,32.8732735,-117.2175596,4150 Regents Park Row Suita 100,La Jolla,California,US,False,False,False,False,False,False
378,Riverwalk Golf Club,Riverwalk Golf Club,https://twitter.com/riverwalk_gc,https://www.facebook.com/RiverwalkGC/,https://www.instagram.com/riverwalkgc/?hl=en,,32.7647675,-117.1748871,1150 Fashion Valley Rd,San Diego,California,US,True,True,True,True,True,False
379,Rose's Tasting Room,Rose's Tasting Room,,https://www.facebook.com/RosesTastingRoom/,https://www.instagram.com/roses_tasting_room/,,32.7549229,-117.1976235,2754 Calhoun St. Ste G,San Diego,California,US,True,False,False,False,False,False
380,SD TapRoom,SD Tap Room,https://twitter.com/TapRoom,https://www.facebook.com/SDTapRoom?fref=ts,https://www.instagram.com/sdtaproom/,,32.7983069,-117.2467138,1269 Garnet Ave,San Diego,California,US,True,True,True,False,False,False
381,Tap That Tap Room,Tap That Tap Room,https://twitter.com/TapThatSD,https://www.facebook.com/tapthatkeg?fref=ts,,,33.2159543,-117.350182,"3207 Roymar Rd, Ste E",Oceanside,California,US,True,False,False,True,False,False
382,The Bier Garden Of Encinitas,The Bier Garden Of Encinitas,https://twitter.com/BierGardenEnci,https://www.facebook.com/thebiergarden?fref=ts,https://www.instagram.com/biergardenencinitas/,,33.0441038,-117.2933749,641 S Coast Hwy 101,Encinitas,California,US,False,False,False,False,False,False
383,The Joint,The Joint,https://twitter.com/TheJointOB,https://www.facebook.com/TheJointOB?fref=ts,,,32.7460576,-117.2493742,4902 Newport Ave,San Diego,California,US,False,True,True,False,False,False
384,The Lodge At Torrey Pines,The Lodge At Torrey Pines,https://twitter.com/LodgeTorreyPine,https://www.facebook.com/LodgeTorreyPines?fref=ts,https://www.instagram.com/lodgetorreypines/,,32.9041197,-117.2446315,11480 N Torrey Pines Rd,San Diego,California,US,False,True,True,False,False,False
385,Third Avenue Alehouse,Third Avenue Alehouse,https://twitter.com/thirdavevillage?lang=en,https://www.facebook.com/thirdavealehouse/,https://www.instagram.com/thirdavenuealehouse/?hl=en,,32.6406242,-117.0793393,319 Third Avenue ,Chula Vista,California,US,False,False,False,True,False,False
386,Tom Ham's Lighthouse,Tom Ham's Lighthouse,https://twitter.com/tomhams,https://www.facebook.com/TomHamsLighthouse,https://www.instagram.com/tomhamslighthouse/,,32.7241549,-117.2132062,2150 Harbor Island Dr.,San Diego,California,US,False,True,True,False,False,False
387,Urge American Gastropub,Urge American Gastropub,https://twitter.com/UrgeGastropub,https://www.facebook.com/UrgeGastropub?fref=ts,,,33.0171972,-117.0743975,16761 Bernardo Center Dr,San Diego,California,US,False,True,True,False,False,False
388,Northern Pine Brewing,Northern Pine Brewing,https://twitter.com/pinebeers,https://www.facebook.com/npbrewing/,https://www.instagram.com/northernpinebrewing/,169850,33.1998358,-117.3769334,326 N Horne St,Oceanside,California,US,True,True,True,False,True,False
389,TapRoom,TapRoom,https://twitter.com/taproom,https://www.facebook.com/SDTapRoom/,https://www.instagram.com/sdtaproom/,,32.7982751,-117.2467052,1269 Garnet Avenue,San Diego,California,US,False,False,False,False,False,False
390,Owl Farm Unique Fermentations,Owl Farm Unique Fermentations,https://twitter.com/owlfarmbeer,https://www.facebook.com/owlfarmbeer,https://www.instagram.com/owlfarmbeer/,384349,33.148182,-117.2181424,"2545 Progress St, Suite D",Vista,California,US,True,True,True,True,True,False
391,Smoking Cannon Brewery,Smoking Cannon Brewery,,https://www.facebook.com/smokingcannonbrewery/,https://www.instagram.com/smokingcannonbrewery/,343138,33.0436042,-116.8649909,"780 Main Street, Suite I",Ramona,California,US,False,True,False,False,True,False
392,13 Point Brewing Company,13 Point Brewing Company,twitter.com/13pointbrew,https://www.facebook.com/13pointbrewing,https://www.instagram.com/13pointbrewingcompany/,418052,32.7427812,-117.0249047,8035 Broadway,Lemon Grove,California,US,True,True,False,False,False,False
393,Helia Brewing Co.,Helia Brewing Co,,https://www.facebook.com/heliabrewingco/,,409450,33.1362767,-117.232107,1250 Keystone Way,Vista,California,US,True,True,False,True,True,False
394,Attitude Brewing Company,Attitude Brewing Company,https://twitter.com/attitudebrewing,https://www.facebook.com/AttitudeBrewing/,https://www.instagram.com/attitudebrewing/,400605,32.700416,-117.145053,"1985 National Ave, Suite 1115",San Diego,California,US,True,True,True,False,True,False
395,Chula Vista Brewery,Chula Vista Brewery,,https://www.facebook.com/cvbrewery/,https://www.instagram.com/cvbrewery/?hl=en,337784,32.6415632,-117.0803328,294 Third Ave,San Diego,California,US,True,True,False,True,True,False
396,Ketch Brewing,Ketch Brewing,,https://www.facebook.com/ketchbrewing/,https://www.instagram.com/ketchbrewing,403312,32.81326120000001,-117.1552894,7889 Ostrow St,San Diego,California,US,False,True,True,False,True,False
397,Ketch Brewing,Ketch Grill & Taps,,https://www.facebook.com/ketchbrewing/,https://www.instagram.com/ketchbrewing,403312,32.7207596,-117.2274216,2614 Shelter Island Drive,San Diego,California,US,False,True,True,False,False,False
398,Hodad's Brewing Company,Hodad's Brewing Company - Downtown,https://twitter.com/hodads1502,http://www.facebook.com/HodadsBurgers,https://www.instagram.com/Hodadsbrewing/,412460,32.7155826,-117.1557974,945 Broadway,San Diego,California,US,False,True,True,False,False,False
399,Hodad's Brewing Company,Hodad's Brewing Company - Ocean Beach,https://twitter.com/hodads1502,http://www.facebook.com/HodadsBurgers,https://www.instagram.com/Hodadsbrewing/,412460,32.7472099,-117.2511462,5010 Newport Ave,Ocean Beach,California,US,False,True,True,False,False,False
400,Hodad's Brewing Company,Ocean Beach Pier Main Parking Lot,https://twitter.com/hodads1502,http://www.facebook.com/HodadsBurgers,https://www.instagram.com/Hodadsbrewing/,412460,32.7451056,-117.2482047,Newport Ave.,Ocean Beach,California,US,False,False,False,False,False,False
401,Nason's Beer Hall,Nason's Beer Hall,,https://www.facebook.com/NasonsBeerHall/,https://www.instagram.com/nasonsbeerhall/,,32.7097764,-117.1596548,570 J Street,San Diego,California,US,True,True,True,False,False,False
402,Sublime Ale House,Sublime Ale House,	https://twitter.com/sublimealehouse,http://www.facebook.com/pages/Sublime-Ale-House/179490412123419,,,33.1344994,-117.1905122,1020 W. San Marcos Blvd,San Marcos,California,US,False,True,True,False,False,False
403,CAVU Brewing Company,CAVU Brewery & Restaurant,https://twitter.com/CAVUBREWING,https://www.facebook.com/CAVUBrewing/,https://www.instagram.com/cavubrewing/,414268,32.8407895,-117.2744546,7536 Fay Ave,La Jolla,California,US,True,True,True,False,False,False
404,Blind Lady Ale House,Blind Lady Ale House,,https://www.facebook.com/Blind-Lady-Ale-House-94886448115,https://www.instagram.com/blindladyalehouse/,,32.763498,-117.1203007,3416 Adams Ave,San Diego,California,US,False,True,True,False,True,False
405,Tiger!Tiger!,Tiger!Tiger!,,https://www.facebook.com/TigerTiger-234683386561648/,https://www.instagram.com/tigertigertavern/,,32.7549636,-117.1295545,3025 El Cajon Blvd,San Diego,California,US,False,True,True,False,True,False
406,Creative Creature Brewing,Creative Creature Brewing,,https://www.facebook.com/creativecreaturebrewing/,https://www.instagram.com/creativecreaturebrewing/,329487,32.7952985,-116.9626252,110 Magnolia Ave,El Cajon,California,US,True,True,True,False,True,False
407,Kairoa Brewing Company,Kairoa Brewing Company,Https://www.twitter.com/kairoabrewingco,Https://www.facebook.com/kairoabrewingcompany,,420194,32.7611663,-117.1460068,4601 Park Blvd,San Diego,California,US,True,True,True,False,True,False
408,Double Peak Brewing Co.,Double Peak Brewing Co.,https://www.instagram.com/doublepeakbrewing/,https://www.facebook.com/DoublePeakBrewing/,https://www.instagram.com/doublepeakbrewing/,416634,33.1050849,-117.2157536,"1801 Diamond Street, Suite 101",San Marcos,California,US,True,True,False,True,True,False
409,Gravity Heights Brewery and Beer Garden,Gravity Heights Brewery and Beer Garden,,https://www.facebook.com/gravityheightsSD/,https://www.instagram.com/gravityheights/,419228,32.9000049,-117.1903479,9920 Pacific Heights Blvd,San Diego,California,US,False,True,True,False,True,False
410,Kensington Brewing Company,Kensington Brewing Company,,https://www.facebook.com/kensingtonbrewingco,https://www.instagram.com/kbcbrewingsd,130140,32.7630155,-117.1079066,4067 Adams Avenue,San Diego,California,US,True,True,False,True,True,False
411,U31,U31,,,,,32.7487279,-117.1273255,3112 University Ave,San Diego,California,US,False,False,False,False,False,False
412,The Original 40 Brewing Co.,The Original 40 Brewing Co.,https://twitter.com/original40beer,https://www.facebook.com/Original40Beer/,https://www.instagram.com/original40beer/,,32.7483021,-117.1266132,​3117 University Ave,San Diego,California,US,True,True,True,False,True,False
413,Harland Brewing Company,Harland Brewing Company,,,https://www.instagram.com/harlandbeer/?hl=en,,32.9041705,-117.1088705,10115 Carroll Canyon Road,San Diego,California,US,True,True,False,True,False,False
414,Harland Brewing Company,Harland Tasting Room at One Paseo,,,https://www.instagram.com/harlandbeer/?hl=en,,32.9510082,-117.2368055,3718 Paseo Place Suite 1300 ,San Diego,California,US,True,True,False,True,False,False
415,Cismontane Brewing Company,Cismontane Brewing Company,https://twitter.com/Cisbrewco,http://www.facebook.com/1653778384644039,http://instagram.com/cisbrewco,,33.123522,-117.0797618,239 E Valley Parkway,Escondido,California,US,False,False,False,False,False,False
416,Black Market Brewing Co.,Black Market Brewing Co. - SDSU,https://twitter.com/blackmarketbrew?lang=en,https://www.facebook.com/Black-Market-Brewing-Co-SDSU-429239691226825/,https://www.instagram.com/blackmarketbrew_sdsu/,,32.7650436,-117.0613016,4800 Art St.,San Diego,California,US,True,True,True,False,True,False
417,California Wild Ales,California Wild Ales,https://twitter.com/caliwildales,https://www.facebook.com/californiawildales,https://www.instagram.com/californiawildales/,,32.9050831,-117.2151184,4202 Sorrento Valley Blvd Suite L&M,San Diego,California,US,True,True,False,False,True,False
418,Julian Beer Co.,Julian Beer Co.,,https://www.facebook.com/julianbrewing/,https://www.instagram.com/julianbeerco/,,33.0792465,-116.603327,2307 Main St.,Julian,California,US,True,True,True,False,True,False
419,Puesto Cervecería,Puesto Cervecería,,,https://www.instagram.com/eatpuesto/,,32.7670751,-117.1539108,5010 Mission Center Rd,San Diego,California,US,True,True,True,False,False,False
420,Dogleg Brewing Company,Dogleg Brewing Company,,https://www.facebook.com/doglegbrewingco/,https://www.instagram.com/doglegbrewingco/,,33.1357718,-117.2336363,1347 Keystone Way Suite A,Vista,California,US,False,False,False,False,False,False
421,Sycuan Casino Resort,Sycuan Casino Resort,,,,,32.7859988,-116.8300324,5469 Casino Way,El Cajon,California,US,False,False,False,False,False,False
422,Hopnonymous Brewing Co.,Hopnonymous Brewing Co. Tasting Room,https://twitter.com/hopnonymousc,https://www.facebook.com/Hopnonymous/,https://www.instagram.com/hopnonymous_brewing_co/,,32.8345474,-117.1544514,7705 Convoy Ct,San Diego,California,US,True,True,False,True,True,False
423,Stave & Nail Brewing Company,Stave & Nail Brewing Company Tasting Room,,https://www.facebook.com/Staveandnailbeer/,https://www.instagram.com/staveandnailbeer/,,33.1427524,-117.1925073,1325 Grand Ave. Suite 107,San Marcos,California,US,True,True,False,True,False,False
424,My Yard Live,My Yard Live,https://twitter.com/MyYardLive,https://www.facebook.com/myyardlive/,https://www.instagram.com/myyardlive/,,33.1388351,-117.1597007,288 Rancheros Dr,San Marcos,California,US,True,True,True,False,True,False
425,TapRoom Beer Company,TapRoom Beer Company,,https://www.facebook.com/taproomnp,https://www.instagram.com/taproombeerco,,32.7553645,-117.1437794,2000 El Cajon Blvd,San Diego,California,US,True,True,True,False,True,False
426,Five Suits Brewing,Five Suits Brewing,https://twitter.com/5suitsbrewing,https://www.facebook.com/fivesuitsbrewing,https://www.instagram.com/fivesuitsbrewing/,,33.1488745,-117.2215877,2575 Pioneer Ave #104,Vista,California,US,False,False,False,False,False,False
427,Groundswell Brewing Company,Groundswell Brewing Company,https://twitter.com/groundswellbrew,https://www.facebook.com/groundswellbrew,https://www.instagram.com/groundswellbrew,,32.8307987,-116.9763687,10151 Prospect Avenue,Santee,California,US,True,True,False,True,True,False
428,BALLAST POINT BREWING COMPANY,BALLAST POINT BREWING COMPANY,https://twitter.com/ballastpointbrewing,https://www.facebook.com/BallastPoint/,https://www.instagram.com/ballastpointbrewing,,32.8879565,-117.1579086,9045 Carrol Way,San Diego,California,US,True,True,True,False,True,False
429,SDSU College of Extended Studies,SDSU,,,,,32.7720012,-117.0726966,5500 Campanile Drive,San Diego,California,US,False,False,False,False,False,False
